<?xml version="1.0" encoding="UTF-8"?>
<kml xmlns="http://www.opengis.net/kml/2.2" xmlns:gx="http://www.google.com/kml/ext/2.2">
  <Document>
    <name>GPS device</name>
    <snippet>Created Tue Sep 29 18:23:58 2026 GMT</snippet>
    <LookAt>
      <longitude>13.724519</longitude>
      <latitude>47.918615</latitude>
      <range>9428.357459</range>
    </LookAt>
    <!-- Normal track style -->
    <Style id="track_n">
      <IconStyle>
        <scale>.5</scale>
        <Icon>
          <href>https://earth.google.com/images/kml-icons/track-directional/track-none.png</href>
        </Icon>
      </IconStyle>
      <LabelStyle>
        <scale>0</scale>
      </LabelStyle>
    </Style>
    <!-- Highlighted track style -->
    <Style id="track_h">
      <IconStyle>
        <scale>1.2</scale>
        <Icon>
          <href>https://earth.google.com/images/kml-icons/track-directional/track-none.png</href>
        </Icon>
      </IconStyle>
    </Style>
    <StyleMap id="track">
      <Pair>
        <key>normal</key>
        <styleUrl>#track_n</styleUrl>
      </Pair>
      <Pair>
        <key>highlight</key>
        <styleUrl>#track_h</styleUrl>
      </Pair>
    </StyleMap>
    <!-- Normal waypoint style -->
    <Style id="waypoint_n">
      <IconStyle>
        <Icon>
          <href>https://maps.google.com/mapfiles/kml/pal4/icon61.png</href>
        </Icon>
      </IconStyle>
    </Style>
    <!-- Highlighted waypoint style -->
    <Style id="waypoint_h">
      <IconStyle>
        <scale>1.2</scale>
        <Icon>
          <href>https://maps.google.com/mapfiles/kml/pal4/icon61.png</href>
        </Icon>
      </IconStyle>
    </Style>
    <StyleMap id="waypoint">
      <Pair>
        <key>normal</key>
        <styleUrl>#waypoint_n</styleUrl>
      </Pair>
      <Pair>
        <key>highlight</key>
        <styleUrl>#waypoint_h</styleUrl>
      </Pair>
    </StyleMap>
    <Style id="lineStyle">
      <LineStyle>
        <color>99ffac59</color>
        <width>6</width>
      </LineStyle>
    </Style>
    <Folder>
      <name>Tracks</name>
      <Folder>
        <name>Aurach am Hongar - Hongar - Kronberg - Pinsdorf</name>
        <Placemark>
          <name>Path</name>
          <styleUrl>#lineStyle</styleUrl>
          <LineString>
            <tessellate>1</tessellate>
            <coordinates>
13.682249,47.933925,557.40
13.682290,47.933890,557.60
13.682401,47.933721,558.10
13.682494,47.933601,560.60
13.682494,47.933601,560.60
13.682699,47.933338,561.60
13.682563,47.933227,562.80
13.682508,47.932994,564.30
13.682380,47.932769,567.30
13.682161,47.932517,572.90
13.682633,47.932071,582.00
13.682680,47.931781,592.20
13.682687,47.931738,601.60
13.682909,47.931552,609.00
13.683116,47.931069,616.10
13.683369,47.930899,622.60
13.683476,47.930740,630.20
13.683400,47.930282,639.20
13.683773,47.929990,645.50
13.683902,47.929836,650.70
13.683952,47.929657,655.40
13.683559,47.929305,661.40
13.683480,47.929116,667.90
13.683606,47.929062,674.10
13.683630,47.928979,679.90
13.683591,47.928937,682.10
13.683491,47.928890,683.10
13.683417,47.928779,684.90
13.683567,47.928294,690.60
13.683567,47.928294,690.60
13.683642,47.928053,693.50
13.683749,47.927916,703.30
13.683771,47.927507,716.50
13.683812,47.927372,729.50
13.683844,47.927306,735.90
13.683803,47.927254,741.00
13.683692,47.927241,742.40
13.683650,47.927172,743.20
13.683577,47.927138,744.10
13.683465,47.926886,745.80
13.683458,47.926671,748.10
13.683458,47.926650,750.10
13.683524,47.926491,752.60
13.683761,47.926095,756.10
13.683931,47.925897,760.00
13.684125,47.925604,765.40
13.684740,47.924932,773.80
13.684894,47.924793,781.00
13.684970,47.924688,787.70
13.685016,47.924413,794.00
13.684849,47.924326,797.30
13.684884,47.924262,800.10
13.684865,47.924226,802.40
13.684668,47.924055,805.00
13.684583,47.923890,807.80
13.684520,47.923836,810.70
13.684438,47.923764,814.10
13.684255,47.923670,817.00
13.684162,47.923591,819.40
13.684067,47.923403,822.70
13.684082,47.923328,825.90
13.684224,47.923276,828.40
13.684423,47.923203,831.20
13.684918,47.923078,834.50
13.685302,47.922936,838.90
13.685464,47.922853,843.70
13.685516,47.922790,848.00
13.685557,47.922741,850.80
13.685577,47.922638,852.70
13.685560,47.922302,856.00
13.685581,47.922233,859.40
13.684702,47.921794,864.80
13.684338,47.921666,870.60
13.684305,47.921643,874.50
13.684295,47.921597,878.10
13.684373,47.921547,879.40
13.684669,47.921530,880.10
13.684812,47.921521,881.00
13.684905,47.921505,881.90
13.685026,47.921448,882.80
13.685084,47.921402,883.50
13.685112,47.921366,884.00
13.685184,47.921333,884.20
13.685239,47.921325,884.40
13.685239,47.921325,884.40
13.685340,47.921309,884.50
13.685464,47.921338,884.60
13.685566,47.921435,885.10
13.685679,47.921446,885.20
13.685917,47.921440,885.40
13.686148,47.921419,885.50
13.686813,47.921269,886.10
13.687185,47.921231,886.70
13.687344,47.921234,887.30
13.687585,47.921289,887.80
13.688558,47.921041,890.60
13.689573,47.920748,896.10
13.689573,47.920748,906.10
13.689900,47.920669,909.90
13.690195,47.920662,910.10
13.690195,47.920662,910.10
13.690249,47.920660,910.10
13.690583,47.920705,910.20
13.691464,47.920870,910.30
13.693438,47.921044,910.60
13.693597,47.921120,911.00
13.693974,47.921217,911.50
13.694158,47.921221,911.90
13.694444,47.921279,912.30
13.694731,47.921375,912.80
13.695032,47.921508,913.20
13.695566,47.921570,915.20
13.695909,47.921664,919.90
13.696518,47.921798,929.10
13.696859,47.921900,936.40
13.697040,47.921954,938.20
13.698060,47.922098,937.00
13.699056,47.922238,933.20
13.699106,47.922255,931.60
13.699106,47.922255,931.60
13.699144,47.922267,931.50
13.699347,47.922386,931.10
13.700815,47.922782,927.00
13.700935,47.922835,924.50
13.701122,47.922950,920.10
13.701324,47.923108,914.90
13.701665,47.923418,910.90
13.701931,47.923834,903.90
13.701937,47.924093,899.70
13.701962,47.924264,902.60
13.701962,47.924264,902.60
13.701963,47.924271,902.60
13.701963,47.924271,902.60
13.702014,47.924623,903.60
13.702014,47.924623,903.90
13.702709,47.924966,904.40
13.702830,47.925104,905.20
13.702846,47.925392,905.80
13.702913,47.925626,906.40
13.702916,47.925913,906.70
13.703093,47.926114,906.40
13.703339,47.926213,905.60
13.703725,47.926304,904.20
13.703977,47.926436,902.50
13.704442,47.926597,900.70
13.706033,47.927005,897.20
13.706523,47.927215,893.50
13.706779,47.927464,890.60
13.707571,47.928822,890.90
13.707697,47.928934,897.80
13.707953,47.929085,899.60
13.707953,47.929085,899.60
13.708352,47.929235,898.60
13.709093,47.929424,897.00
13.709312,47.929550,895.80
13.709495,47.929655,893.60
13.710333,47.929899,890.30
13.710505,47.929970,887.50
13.710854,47.930205,884.20
13.711725,47.930871,879.20
13.712386,47.931081,874.60
13.713701,47.931635,867.90
13.714145,47.931814,862.20
13.714317,47.931986,858.80
13.714832,47.932213,856.90
13.714832,47.932213,857.00
13.715586,47.932381,856.50
13.716994,47.932597,854.10
13.717175,47.932643,851.30
13.717380,47.932694,848.90
13.718077,47.932939,847.40
13.718312,47.932980,847.60
13.718814,47.933105,848.30
13.719407,47.933178,848.30
13.720147,47.933379,847.40
13.720745,47.933511,845.80
13.721402,47.933624,843.40
13.722045,47.933616,840.90
13.722636,47.933666,838.60
13.723533,47.933805,836.10
13.724524,47.933871,833.20
13.725518,47.934071,828.50
13.726752,47.934193,823.00
13.726845,47.934209,820.50
13.726845,47.934209,819.90
13.726866,47.934213,819.90
13.726866,47.934213,819.90
13.727390,47.934305,819.40
13.727905,47.934463,818.60
13.727905,47.934463,818.00
13.728286,47.934492,817.00
13.728796,47.934585,815.80
13.729287,47.934593,814.70
13.729748,47.934545,812.70
13.729878,47.934512,810.60
13.730163,47.934438,808.70
13.730637,47.934347,806.90
13.731036,47.934233,805.80
13.731598,47.934059,805.40
13.731598,47.934059,805.30
13.731876,47.934036,805.60
13.732349,47.934065,806.50
13.732953,47.933993,807.30
13.733127,47.934005,808.00
13.733362,47.933925,808.80
13.733649,47.933765,809.50
13.734140,47.933654,810.40
13.734512,47.933547,811.70
13.734883,47.933377,811.00
13.734883,47.933377,811.00
13.735370,47.933153,810.50
13.736353,47.932825,807.30
13.737543,47.932752,801.50
13.737872,47.932806,793.60
13.738371,47.932728,784.20
13.738777,47.932750,775.60
13.739031,47.932726,770.20
13.739370,47.932694,764.20
13.739718,47.932789,757.70
13.740170,47.932803,749.80
13.740545,47.932790,740.50
13.741262,47.932797,728.80
13.741518,47.932828,718.60
13.741853,47.932810,709.30
13.742188,47.932902,700.20
13.742505,47.933057,693.00
13.742718,47.933013,686.00
13.742730,47.932889,679.90
13.742859,47.932741,674.80
13.743164,47.932569,670.10
13.743475,47.932494,665.40
13.743864,47.932497,660.40
13.744386,47.932426,655.20
13.744697,47.932409,651.00
13.744812,47.932343,647.20
13.745259,47.932317,643.50
13.745600,47.932197,640.50
13.746033,47.932147,637.50
13.746546,47.932145,633.70
13.747162,47.932075,628.60
13.747586,47.931998,622.30
13.747708,47.932072,616.80
13.747912,47.932091,611.40
13.748179,47.932089,607.00
13.748652,47.932011,602.20
13.749318,47.931840,594.40
13.749593,47.931837,586.20
13.749873,47.931889,577.80
13.749854,47.931917,571.40
13.749760,47.932053,567.80
13.749660,47.932299,564.00
13.749197,47.932819,558.00
13.749196,47.933069,551.00
13.749463,47.933129,543.30
13.749935,47.933342,535.10
13.750184,47.933140,530.10
13.750481,47.933270,525.00
13.751113,47.933396,518.00
13.751447,47.933393,511.50
13.751679,47.933338,504.20
13.751883,47.933233,497.40
13.752089,47.933197,492.60
13.752695,47.933235,486.50
13.752857,47.933262,480.80
13.752932,47.933248,476.00
13.752993,47.933253,470.70
13.753027,47.933224,468.90
13.753223,47.933186,466.40
13.753223,47.933186,466.40
13.753246,47.933182,465.30
13.753169,47.932884,464.90
13.753577,47.932800,466.60
13.753577,47.932800,466.50
13.753500,47.932570,466.60
13.753476,47.932404,466.70
13.753487,47.932212,466.90
13.753554,47.931857,467.20
13.753600,47.931792,467.40
13.753670,47.931754,467.80
13.753738,47.931739,467.80
13.753738,47.931739,467.80
13.753832,47.931870,468.10
13.753832,47.931870,468.00
13.754174,47.932061,468.60
13.754354,47.932214,469.70
13.754462,47.932335,471.10
13.754601,47.932438,472.80
13.754855,47.932535,474.20
13.755217,47.932610,475.80
13.755618,47.932652,477.80
13.755983,47.932657,480.00
13.756383,47.932627,482.30
13.756847,47.932565,484.80
13.757080,47.932487,486.90
13.757289,47.932435,488.60
13.757610,47.932412,489.90
13.758057,47.932357,490.90
13.758305,47.932335,492.00
13.759121,47.932304,493.50
13.759542,47.932210,495.00
13.759662,47.932157,496.20
13.759702,47.932118,497.20
13.759744,47.932022,497.50
13.759716,47.931912,497.70
13.759614,47.931834,498.00
13.759514,47.931708,498.40
13.759473,47.931609,498.80
13.759461,47.931499,499.40
13.760764,47.931488,499.70
13.760765,47.931484,500.10
13.760839,47.931174,500.60
13.760899,47.930729,501.70
13.761005,47.930044,504.70
13.761022,47.929812,508.30
13.760957,47.929628,512.40
13.759785,47.929640,515.90
13.759292,47.929622,517.60
13.758647,47.929529,518.50
13.758496,47.929393,519.40
13.758230,47.929067,521.50
13.758180,47.928950,523.90
13.758178,47.928717,527.10
13.758114,47.928601,530.20
13.757869,47.928423,532.80
13.757625,47.928066,536.30
13.757601,47.927980,539.40
13.757630,47.927898,542.30
13.757741,47.927804,544.80
13.758016,47.927700,545.60
13.758462,47.927714,546.90
13.758716,47.927537,548.80
13.757791,47.926757,550.10
13.757591,47.926565,551.70
13.757497,47.926410,552.40
13.757455,47.926277,552.00
13.757437,47.925956,551.80
13.757443,47.925855,551.90
13.757443,47.925855,551.90
13.757444,47.925842,551.90
13.757444,47.925842,551.90
13.757458,47.925607,552.00
13.757347,47.925095,552.30
13.757309,47.924515,552.80
13.757306,47.924063,554.60
13.757350,47.923796,557.00
13.757407,47.923560,559.80
13.757611,47.923220,563.20
13.757666,47.923054,565.60
13.757676,47.922889,567.40
13.757653,47.922851,568.70
13.757617,47.922822,569.20
13.757502,47.922789,569.50
13.757398,47.922801,569.90
13.757298,47.922837,570.40
13.757241,47.922865,571.50
13.757241,47.922865,571.50
13.757234,47.922868,571.50
13.757234,47.922868,571.50
13.756765,47.923100,572.00
13.756582,47.923220,572.40
13.756519,47.923282,572.60
13.756446,47.923409,573.30
13.756345,47.923765,574.10
13.756292,47.923819,573.90
13.756207,47.923836,574.10
13.756139,47.923808,574.30
13.756123,47.923771,574.20
13.756139,47.923648,575.20
13.756324,47.923242,576.80
13.756483,47.922892,579.20
13.756635,47.922669,582.20
13.757344,47.921767,587.50
13.757410,47.921706,591.90
13.757581,47.921611,595.70
13.758309,47.921370,599.80
13.758796,47.921229,602.20
13.759671,47.921120,606.00
13.760953,47.920971,612.10
13.761283,47.920946,618.00
13.761450,47.920974,623.30
13.761610,47.921039,627.40
13.761723,47.921068,629.10
13.761812,47.921059,630.20
13.761850,47.920998,630.50
13.761838,47.920900,630.90
13.761579,47.920519,632.90
13.761282,47.920336,635.90
13.761043,47.920237,640.00
13.760630,47.920128,645.00
13.760120,47.919951,649.80
13.759855,47.919892,654.10
13.759416,47.919832,658.30
13.759206,47.919788,661.80
13.759206,47.919788,663.90
13.759130,47.919757,665.50
13.758901,47.919609,666.70
13.758696,47.919433,667.60
13.758674,47.919357,668.80
13.758698,47.919297,670.10
13.758752,47.919273,671.40
13.758822,47.919267,672.40
13.758902,47.919294,672.80
13.759118,47.919464,673.40
13.759358,47.919524,674.30
13.759496,47.919525,675.20
13.759722,47.919488,676.60
13.760284,47.919360,678.50
13.760617,47.919269,680.50
13.760954,47.919145,682.90
13.761128,47.919054,685.20
13.761274,47.918949,686.70
13.761708,47.918521,689.00
13.761821,47.918379,691.70
13.761784,47.918352,695.50
13.761784,47.918352,695.50
13.761821,47.918379,693.80
13.761862,47.918359,687.20
13.761862,47.918359,687.20
13.762523,47.918045,684.70
13.762881,47.917881,682.40
13.762962,47.917827,680.60
13.763004,47.917676,676.60
13.762962,47.917453,672.10
13.762752,47.917144,667.20
13.762533,47.916975,662.40
13.762141,47.916597,657.70
13.761889,47.916396,654.20
13.761679,47.916170,650.80
13.761454,47.916090,646.80
13.760875,47.916018,643.20
13.760784,47.915965,639.80
13.760741,47.915860,637.50
13.760810,47.915734,635.80
13.760778,47.915562,634.20
13.760778,47.915562,632.50
13.760549,47.915462,630.80
13.760185,47.915335,628.70
13.760601,47.915201,625.70
13.760526,47.914969,620.40
13.760417,47.914763,613.00
13.760418,47.914594,605.80
13.760458,47.914420,596.20
13.760304,47.914283,591.50
13.760344,47.913884,580.00
13.760391,47.913861,579.40
13.760429,47.913833,574.60
13.760429,47.913833,574.60
13.760682,47.913651,572.50
13.760566,47.913325,569.40
13.760577,47.913144,566.80
13.760629,47.913073,562.50
13.760651,47.912968,558.60
13.760673,47.912534,554.00
13.760635,47.912457,550.00
13.760726,47.912277,542.00
13.760876,47.911856,533.20
13.761150,47.911796,526.30
13.761150,47.911796,526.30
13.761187,47.911788,524.60
13.761099,47.911756,523.60
13.760548,47.911742,524.00
13.760468,47.911691,524.00
13.760464,47.911656,523.70
13.760556,47.911608,523.50
13.760927,47.911577,521.90
13.761380,47.911471,519.30
13.761733,47.911448,516.10
13.762069,47.911489,512.50
13.762639,47.911583,508.80
13.762805,47.911574,506.10
13.763113,47.911485,503.60
13.763782,47.911448,500.40
13.764013,47.911462,497.70
13.764105,47.911472,495.30
13.764477,47.911578,492.80
13.765033,47.911787,491.30
13.765923,47.912161,490.00
13.765923,47.912161,490.00
13.765942,47.912169,490.00
13.765942,47.912169,490.00
13.766014,47.912199,489.80
13.766053,47.912164,489.80
13.766365,47.911874,489.90
13.766442,47.911822,489.90
13.766442,47.911822,489.90
13.766513,47.911773,489.90
13.766692,47.911672,490.60
13.766873,47.911593,491.90
13.766873,47.911593,491.90
13.766877,47.911592,492.20
13.766802,47.911513,492.70
13.766802,47.911513,492.70
13.766773,47.911483,492.80
13.766227,47.910976,493.40
13.765874,47.910740,494.00
13.765783,47.910699,494.90
13.765457,47.910556,495.90
13.764795,47.910250,496.70
13.764406,47.910008,497.40
13.763991,47.909695,498.40
13.763797,47.909542,498.50
13.763499,47.909301,498.40
13.763499,47.909301,498.40
13.763495,47.909298,498.40
13.763495,47.909298,498.40
13.763190,47.909051,498.40
13.763034,47.908905,498.40
13.762735,47.908546,497.90
13.762525,47.908308,497.00
13.762525,47.908308,497.00
13.762342,47.908100,496.50
13.762109,47.907916,496.40
13.761666,47.907594,496.10
13.760780,47.907009,495.20
13.760568,47.906909,494.30
13.760568,47.906909,494.30
13.760528,47.906891,494.10
13.760245,47.906788,492.70
13.760080,47.906683,491.30
13.759609,47.906141,490.70
13.759400,47.905996,490.30
13.759253,47.905880,490.20
13.759038,47.905646,490.40
13.758979,47.905615,490.40
13.758665,47.905520,490.40
13.758593,47.905464,490.50
13.758580,47.905421,490.60
13.758581,47.905202,491.00
13.758502,47.905188,491.40
13.758350,47.905127,491.90
13.758060,47.905109,492.60
13.757933,47.905059,493.10
13.757348,47.904686,494.30
13.756887,47.904440,495.80
13.756542,47.904161,497.50
13.756208,47.904196,499.90
13.756032,47.904218,501.90
13.755997,47.904399,504.30
13.755946,47.904482,506.60
13.755697,47.904596,509.20
13.755165,47.904759,513.40
13.754909,47.904805,517.50
13.754731,47.904788,524.40
13.754568,47.904716,528.40
13.754261,47.904447,527.80
13.754261,47.904447,527.80
13.753822,47.904063,525.60
13.753777,47.904012,523.10
13.753737,47.903892,519.00
13.753765,47.903763,515.70
13.753870,47.903579,512.50
13.754059,47.903381,509.20
13.754389,47.903137,507.20
13.754467,47.903058,506.00
13.754588,47.902848,505.30
13.754489,47.902815,505.70
13.754405,47.902636,505.20
</coordinates>
          </LineString>
        </Placemark>
      </Folder>
    </Folder>
  </Document>
</kml>
