<?xml version="1.0" encoding="UTF-8"?>
<kml xmlns="http://www.opengis.net/kml/2.2" xmlns:gx="http://www.google.com/kml/ext/2.2">
  <Document>
    <name>GPS device</name>
    <snippet>Created Tue Sep 29 18:32:18 2026 GMT</snippet>
    <LookAt>
      <longitude>13.625919</longitude>
      <latitude>47.910549</latitude>
      <range>12040.794148</range>
    </LookAt>
    <!-- Normal track style -->
    <Style id="track_n">
      <IconStyle>
        <scale>.5</scale>
        <Icon>
          <href>https://earth.google.com/images/kml-icons/track-directional/track-none.png</href>
        </Icon>
      </IconStyle>
      <LabelStyle>
        <scale>0</scale>
      </LabelStyle>
    </Style>
    <!-- Highlighted track style -->
    <Style id="track_h">
      <IconStyle>
        <scale>1.2</scale>
        <Icon>
          <href>https://earth.google.com/images/kml-icons/track-directional/track-none.png</href>
        </Icon>
      </IconStyle>
    </Style>
    <StyleMap id="track">
      <Pair>
        <key>normal</key>
        <styleUrl>#track_n</styleUrl>
      </Pair>
      <Pair>
        <key>highlight</key>
        <styleUrl>#track_h</styleUrl>
      </Pair>
    </StyleMap>
    <!-- Normal waypoint style -->
    <Style id="waypoint_n">
      <IconStyle>
        <Icon>
          <href>https://maps.google.com/mapfiles/kml/pal4/icon61.png</href>
        </Icon>
      </IconStyle>
    </Style>
    <!-- Highlighted waypoint style -->
    <Style id="waypoint_h">
      <IconStyle>
        <scale>1.2</scale>
        <Icon>
          <href>https://maps.google.com/mapfiles/kml/pal4/icon61.png</href>
        </Icon>
      </IconStyle>
    </Style>
    <StyleMap id="waypoint">
      <Pair>
        <key>normal</key>
        <styleUrl>#waypoint_n</styleUrl>
      </Pair>
      <Pair>
        <key>highlight</key>
        <styleUrl>#waypoint_h</styleUrl>
      </Pair>
    </StyleMap>
    <Style id="lineStyle">
      <LineStyle>
        <color>99ffac59</color>
        <width>6</width>
      </LineStyle>
    </Style>
    <Folder>
      <name>Tracks</name>
      <Folder>
        <name>Weyregg Hongar</name>
        <Placemark>
          <name>Path</name>
          <styleUrl>#lineStyle</styleUrl>
          <LineString>
            <tessellate>1</tessellate>
            <coordinates>
13.566750,47.901893,471.00
13.567610,47.901349,471.10
13.567771,47.901122,470.70
13.568638,47.900719,470.10
13.569460,47.901034,472.30
13.569722,47.901063,472.80
13.569927,47.901296,473.60
13.570851,47.901983,476.10
13.571982,47.902681,478.60
13.572385,47.902270,482.70
13.572592,47.902323,483.20
13.572735,47.902138,483.80
13.572945,47.902180,484.50
13.573443,47.902119,486.70
13.573635,47.902181,488.20
13.574237,47.901814,492.80
13.575497,47.902030,501.60
13.575721,47.902012,503.10
13.575883,47.901899,504.00
13.576161,47.901537,505.50
13.576638,47.901257,508.30
13.578143,47.900852,513.90
13.578419,47.900649,509.70
13.578696,47.900562,501.70
13.579040,47.900625,492.70
13.579427,47.900879,492.30
13.580996,47.900430,496.20
13.581537,47.900476,498.80
13.582373,47.900708,506.60
13.582876,47.900596,520.60
13.583194,47.900319,531.20
13.583725,47.900080,542.60
13.584361,47.900008,548.00
13.585923,47.899291,567.40
13.586314,47.899000,572.30
13.588379,47.898260,603.40
13.589253,47.898249,617.10
13.589294,47.898323,616.70
13.589504,47.898382,619.30
13.590692,47.898449,624.40
13.592116,47.898747,626.60
13.592666,47.898671,628.60
13.593266,47.898255,636.40
13.593531,47.898173,639.10
13.594627,47.898159,650.40
13.595081,47.898062,654.70
13.595619,47.898052,661.00
13.595833,47.898266,663.40
13.596010,47.898058,665.60
13.596388,47.897990,668.90
13.598633,47.898584,685.00
13.599926,47.899044,696.20
13.600596,47.899163,701.20
13.602719,47.900038,711.80
13.602886,47.900255,710.90
13.602906,47.900841,706.70
13.603410,47.901353,700.30
13.603612,47.901381,699.60
13.604197,47.901112,700.50
13.604799,47.901016,701.60
13.606427,47.901066,709.10
13.607314,47.901187,717.00
13.606372,47.901390,721.40
13.605676,47.901464,727.80
13.605416,47.901620,730.50
13.605366,47.901745,733.00
13.605935,47.902017,743.10
13.606882,47.902137,753.30
13.607462,47.902660,765.90
13.608183,47.902880,775.70
13.610467,47.904032,800.70
13.611783,47.904538,804.30
13.614031,47.905301,806.20
13.615774,47.905648,817.30
13.616437,47.905718,821.60
13.616569,47.905904,825.10
13.616489,47.906099,827.10
13.616334,47.906221,827.70
13.616366,47.906364,829.40
13.616598,47.906445,831.10
13.617269,47.906478,836.70
13.617914,47.906964,837.80
13.618229,47.907305,837.30
13.618401,47.907744,839.40
13.618912,47.908637,841.20
13.618986,47.909037,840.50
13.618776,47.909644,837.90
13.618406,47.910010,834.80
13.618152,47.910124,834.30
13.618466,47.910123,837.10
13.619239,47.909946,844.70
13.619764,47.909957,845.50
13.619968,47.909851,850.70
13.621064,47.909597,862.00
13.621147,47.909540,864.00
13.620856,47.909428,868.50
13.620910,47.909316,872.70
13.621325,47.909166,880.10
13.622064,47.909065,885.70
13.622870,47.908673,901.60
13.623904,47.908700,900.50
13.625179,47.909069,901.40
13.627016,47.909394,899.40
13.631318,47.909924,897.40
13.632068,47.910092,893.40
13.632601,47.910258,888.60
13.633150,47.910644,882.60
13.633811,47.910989,880.90
13.634353,47.911159,876.90
13.634904,47.911469,872.70
13.635549,47.911604,867.50
13.636062,47.911664,864.80
13.637120,47.911534,862.20
13.638540,47.911527,857.30
13.639919,47.911368,851.10
13.642163,47.911341,840.40
13.643137,47.911479,842.40
13.643956,47.911701,846.20
13.644755,47.911967,852.00
13.645881,47.912567,853.40
13.647926,47.912470,853.10
13.649077,47.912605,848.60
13.650100,47.912872,844.50
13.650773,47.913200,836.10
13.651224,47.913768,826.00
13.651823,47.914882,824.90
13.651932,47.915191,832.10
13.652052,47.916038,847.10
13.652342,47.916619,858.40
13.652412,47.917012,863.10
13.652241,47.917302,867.60
13.652348,47.917828,873.10
13.652672,47.918348,877.10
13.653183,47.918852,882.30
13.653769,47.919215,893.20
13.653932,47.919446,901.10
13.654700,47.919750,910.90
13.655623,47.920232,926.40
13.657608,47.920570,947.20
13.658619,47.921052,952.80
13.660541,47.921794,963.40
13.661177,47.921897,968.50
13.661774,47.922128,968.10
13.662410,47.922261,966.30
13.664225,47.922837,971.90
13.665635,47.923089,962.30
13.667510,47.923108,951.90
13.669096,47.923025,940.40
13.670337,47.922878,930.80
13.670578,47.922796,929.40
13.670772,47.922641,927.50
13.671119,47.922543,926.20
13.672709,47.922371,920.80
13.672961,47.922252,921.00
13.676479,47.921992,911.70
13.678497,47.922101,897.80
13.679982,47.921729,900.30
13.681259,47.921555,895.10
13.683910,47.921335,885.30
13.683995,47.921485,883.40
13.684295,47.921597,879.70
13.684905,47.921505,884.50
13.685088,47.921397,884.00
</coordinates>
          </LineString>
        </Placemark>
      </Folder>
    </Folder>
  </Document>
</kml>
