<?xml version="1.0" encoding="UTF-8"?>
<gpx version="1.1" creator="hongar.markus-schwarz.cc" xmlns="http://www.topografix.com/GPX/1/1">
  <metadata><name>Hongar – Aurach</name></metadata>
  <trk>
    <name>Hongar – Aurach</name>
    <trkseg>
      <trkpt lat="47.932926" lon="13.683154"><ele>574.00</ele></trkpt>
      <trkpt lat="47.932777" lon="13.683157"><ele>575.00</ele></trkpt>
      <trkpt lat="47.932327" lon="13.683513"><ele>580.00</ele></trkpt>
      <trkpt lat="47.932068" lon="13.684176"><ele>582.00</ele></trkpt>
      <trkpt lat="47.931767" lon="13.684552"><ele>585.00</ele></trkpt>
      <trkpt lat="47.931583" lon="13.684640"><ele>588.00</ele></trkpt>
      <trkpt lat="47.931358" lon="13.685202"><ele>593.00</ele></trkpt>
      <trkpt lat="47.931225" lon="13.685278"><ele>593.00</ele></trkpt>
      <trkpt lat="47.931187" lon="13.685161"><ele>594.00</ele></trkpt>
      <trkpt lat="47.931316" lon="13.684528"><ele>596.00</ele></trkpt>
      <trkpt lat="47.931644" lon="13.683870"><ele>599.00</ele></trkpt>
      <trkpt lat="47.931831" lon="13.682953"><ele>605.00</ele></trkpt>
      <trkpt lat="47.931534" lon="13.682433"><ele>610.00</ele></trkpt>
      <trkpt lat="47.930958" lon="13.681803"><ele>622.00</ele></trkpt>
      <trkpt lat="47.930637" lon="13.681655"><ele>629.00</ele></trkpt>
      <trkpt lat="47.930248" lon="13.681681"><ele>637.00</ele></trkpt>
      <trkpt lat="47.930023" lon="13.681549"><ele>641.00</ele></trkpt>
      <trkpt lat="47.929867" lon="13.681551"><ele>642.00</ele></trkpt>
      <trkpt lat="47.929432" lon="13.681249"><ele>646.00</ele></trkpt>
      <trkpt lat="47.928329" lon="13.680744"><ele>658.00</ele></trkpt>
      <trkpt lat="47.928356" lon="13.680951"><ele>660.00</ele></trkpt>
      <trkpt lat="47.928185" lon="13.681152"><ele>660.00</ele></trkpt>
      <trkpt lat="47.928257" lon="13.681278"><ele>661.00</ele></trkpt>
      <trkpt lat="47.928467" lon="13.681303"><ele>662.00</ele></trkpt>
      <trkpt lat="47.928535" lon="13.681401"><ele>662.00</ele></trkpt>
      <trkpt lat="47.928547" lon="13.681548"><ele>662.00</ele></trkpt>
      <trkpt lat="47.928413" lon="13.681684"><ele>663.00</ele></trkpt>
      <trkpt lat="47.928600" lon="13.682055"><ele>663.00</ele></trkpt>
      <trkpt lat="47.928879" lon="13.682323"><ele>665.00</ele></trkpt>
      <trkpt lat="47.928989" lon="13.682622"><ele>668.00</ele></trkpt>
      <trkpt lat="47.929085" lon="13.683389"><ele>672.00</ele></trkpt>
      <trkpt lat="47.928921" lon="13.683401"><ele>674.00</ele></trkpt>
      <trkpt lat="47.928905" lon="13.683605"><ele>676.00</ele></trkpt>
      <trkpt lat="47.928734" lon="13.683056"><ele>686.00</ele></trkpt>
      <trkpt lat="47.928421" lon="13.682797"><ele>692.00</ele></trkpt>
      <trkpt lat="47.927982" lon="13.682185"><ele>697.00</ele></trkpt>
      <trkpt lat="47.927666" lon="13.681961"><ele>701.00</ele></trkpt>
      <trkpt lat="47.927124" lon="13.681972"><ele>707.00</ele></trkpt>
      <trkpt lat="47.926624" lon="13.682228"><ele>714.00</ele></trkpt>
      <trkpt lat="47.926250" lon="13.682308"><ele>720.00</ele></trkpt>
      <trkpt lat="47.926674" lon="13.682530"><ele>724.00</ele></trkpt>
      <trkpt lat="47.926876" lon="13.682833"><ele>725.00</ele></trkpt>
      <trkpt lat="47.926830" lon="13.682806"><ele>725.00</ele></trkpt>
      <trkpt lat="47.926838" lon="13.682630"><ele>727.00</ele></trkpt>
      <trkpt lat="47.927402" lon="13.683039"><ele>729.00</ele></trkpt>
      <trkpt lat="47.927479" lon="13.683630"><ele>731.00</ele></trkpt>
      <trkpt lat="47.927326" lon="13.683824"><ele>735.00</ele></trkpt>
      <trkpt lat="47.927231" lon="13.683796"><ele>736.00</ele></trkpt>
      <trkpt lat="47.927158" lon="13.683400"><ele>740.00</ele></trkpt>
      <trkpt lat="47.927223" lon="13.683222"><ele>741.00</ele></trkpt>
      <trkpt lat="47.927082" lon="13.683173"><ele>742.00</ele></trkpt>
      <trkpt lat="47.926708" lon="13.683342"><ele>745.00</ele></trkpt>
      <trkpt lat="47.926567" lon="13.683536"><ele>748.00</ele></trkpt>
      <trkpt lat="47.926117" lon="13.683838"><ele>754.00</ele></trkpt>
      <trkpt lat="47.925907" lon="13.683846"><ele>757.00</ele></trkpt>
      <trkpt lat="47.925678" lon="13.684219"><ele>762.00</ele></trkpt>
      <trkpt lat="47.924965" lon="13.684735"><ele>774.00</ele></trkpt>
      <trkpt lat="47.924538" lon="13.685259"><ele>782.00</ele></trkpt>
      <trkpt lat="47.924374" lon="13.685911"><ele>787.00</ele></trkpt>
      <trkpt lat="47.924271" lon="13.685592"><ele>790.00</ele></trkpt>
      <trkpt lat="47.924400" lon="13.685147"><ele>794.00</ele></trkpt>
      <trkpt lat="47.924252" lon="13.684806"><ele>800.00</ele></trkpt>
      <trkpt lat="47.923912" lon="13.684510"><ele>807.00</ele></trkpt>
      <trkpt lat="47.923611" lon="13.683723"><ele>815.00</ele></trkpt>
      <trkpt lat="47.923489" lon="13.683602"><ele>817.00</ele></trkpt>
      <trkpt lat="47.923439" lon="13.683796"><ele>818.00</ele></trkpt>
      <trkpt lat="47.923534" lon="13.683950"><ele>819.00</ele></trkpt>
      <trkpt lat="47.923515" lon="13.684291"><ele>821.00</ele></trkpt>
      <trkpt lat="47.923660" lon="13.684645"><ele>822.00</ele></trkpt>
      <trkpt lat="47.923546" lon="13.685395"><ele>825.00</ele></trkpt>
      <trkpt lat="47.923515" lon="13.685538"><ele>826.00</ele></trkpt>
      <trkpt lat="47.923306" lon="13.685733"><ele>829.00</ele></trkpt>
      <trkpt lat="47.923306" lon="13.686024"><ele>831.00</ele></trkpt>
      <trkpt lat="47.922813" lon="13.686818"><ele>844.00</ele></trkpt>
      <trkpt lat="47.922680" lon="13.686824"><ele>847.00</ele></trkpt>
      <trkpt lat="47.922497" lon="13.686129"><ele>857.00</ele></trkpt>
      <trkpt lat="47.921894" lon="13.684974"><ele>869.00</ele></trkpt>
      <trkpt lat="47.921822" lon="13.684627"><ele>873.00</ele></trkpt>
      <trkpt lat="47.921608" lon="13.684332"><ele>876.00</ele></trkpt>
      <trkpt lat="47.921417" lon="13.685233"><ele>881.00</ele></trkpt>
    </trkseg>
  </trk>
</gpx>
