<?xml version="1.0" encoding="UTF-8"?>
<gpx version="1.1" creator="hongar.markus-schwarz.cc" xmlns="http://www.topografix.com/GPX/1/1">
  <metadata><name>Hongar – Pinsdorf</name></metadata>
  <trk>
    <name>Hongar – Pinsdorf</name>
    <trkseg>
      <trkpt lat="47.933925" lon="13.682249"><ele>557.40</ele></trkpt>
      <trkpt lat="47.933890" lon="13.682290"><ele>557.60</ele></trkpt>
      <trkpt lat="47.933721" lon="13.682401"><ele>558.10</ele></trkpt>
      <trkpt lat="47.933601" lon="13.682494"><ele>560.60</ele></trkpt>
      <trkpt lat="47.933601" lon="13.682494"><ele>560.60</ele></trkpt>
      <trkpt lat="47.933338" lon="13.682699"><ele>561.60</ele></trkpt>
      <trkpt lat="47.933227" lon="13.682563"><ele>562.80</ele></trkpt>
      <trkpt lat="47.932994" lon="13.682508"><ele>564.30</ele></trkpt>
      <trkpt lat="47.932769" lon="13.682380"><ele>567.30</ele></trkpt>
      <trkpt lat="47.932517" lon="13.682161"><ele>572.90</ele></trkpt>
      <trkpt lat="47.932071" lon="13.682633"><ele>582.00</ele></trkpt>
      <trkpt lat="47.931781" lon="13.682680"><ele>592.20</ele></trkpt>
      <trkpt lat="47.931738" lon="13.682687"><ele>601.60</ele></trkpt>
      <trkpt lat="47.931552" lon="13.682909"><ele>609.00</ele></trkpt>
      <trkpt lat="47.931069" lon="13.683116"><ele>616.10</ele></trkpt>
      <trkpt lat="47.930899" lon="13.683369"><ele>622.60</ele></trkpt>
      <trkpt lat="47.930740" lon="13.683476"><ele>630.20</ele></trkpt>
      <trkpt lat="47.930282" lon="13.683400"><ele>639.20</ele></trkpt>
      <trkpt lat="47.929990" lon="13.683773"><ele>645.50</ele></trkpt>
      <trkpt lat="47.929836" lon="13.683902"><ele>650.70</ele></trkpt>
      <trkpt lat="47.929657" lon="13.683952"><ele>655.40</ele></trkpt>
      <trkpt lat="47.929305" lon="13.683559"><ele>661.40</ele></trkpt>
      <trkpt lat="47.929116" lon="13.683480"><ele>667.90</ele></trkpt>
      <trkpt lat="47.929062" lon="13.683606"><ele>674.10</ele></trkpt>
      <trkpt lat="47.928979" lon="13.683630"><ele>679.90</ele></trkpt>
      <trkpt lat="47.928937" lon="13.683591"><ele>682.10</ele></trkpt>
      <trkpt lat="47.928890" lon="13.683491"><ele>683.10</ele></trkpt>
      <trkpt lat="47.928779" lon="13.683417"><ele>684.90</ele></trkpt>
      <trkpt lat="47.928294" lon="13.683567"><ele>690.60</ele></trkpt>
      <trkpt lat="47.928294" lon="13.683567"><ele>690.60</ele></trkpt>
      <trkpt lat="47.928053" lon="13.683642"><ele>693.50</ele></trkpt>
      <trkpt lat="47.927916" lon="13.683749"><ele>703.30</ele></trkpt>
      <trkpt lat="47.927507" lon="13.683771"><ele>716.50</ele></trkpt>
      <trkpt lat="47.927372" lon="13.683812"><ele>729.50</ele></trkpt>
      <trkpt lat="47.927306" lon="13.683844"><ele>735.90</ele></trkpt>
      <trkpt lat="47.927254" lon="13.683803"><ele>741.00</ele></trkpt>
      <trkpt lat="47.927241" lon="13.683692"><ele>742.40</ele></trkpt>
      <trkpt lat="47.927172" lon="13.683650"><ele>743.20</ele></trkpt>
      <trkpt lat="47.927138" lon="13.683577"><ele>744.10</ele></trkpt>
      <trkpt lat="47.926886" lon="13.683465"><ele>745.80</ele></trkpt>
      <trkpt lat="47.926671" lon="13.683458"><ele>748.10</ele></trkpt>
      <trkpt lat="47.926650" lon="13.683458"><ele>750.10</ele></trkpt>
      <trkpt lat="47.926491" lon="13.683524"><ele>752.60</ele></trkpt>
      <trkpt lat="47.926095" lon="13.683761"><ele>756.10</ele></trkpt>
      <trkpt lat="47.925897" lon="13.683931"><ele>760.00</ele></trkpt>
      <trkpt lat="47.925604" lon="13.684125"><ele>765.40</ele></trkpt>
      <trkpt lat="47.924932" lon="13.684740"><ele>773.80</ele></trkpt>
      <trkpt lat="47.924793" lon="13.684894"><ele>781.00</ele></trkpt>
      <trkpt lat="47.924688" lon="13.684970"><ele>787.70</ele></trkpt>
      <trkpt lat="47.924413" lon="13.685016"><ele>794.00</ele></trkpt>
      <trkpt lat="47.924326" lon="13.684849"><ele>797.30</ele></trkpt>
      <trkpt lat="47.924262" lon="13.684884"><ele>800.10</ele></trkpt>
      <trkpt lat="47.924226" lon="13.684865"><ele>802.40</ele></trkpt>
      <trkpt lat="47.924055" lon="13.684668"><ele>805.00</ele></trkpt>
      <trkpt lat="47.923890" lon="13.684583"><ele>807.80</ele></trkpt>
      <trkpt lat="47.923836" lon="13.684520"><ele>810.70</ele></trkpt>
      <trkpt lat="47.923764" lon="13.684438"><ele>814.10</ele></trkpt>
      <trkpt lat="47.923670" lon="13.684255"><ele>817.00</ele></trkpt>
      <trkpt lat="47.923591" lon="13.684162"><ele>819.40</ele></trkpt>
      <trkpt lat="47.923403" lon="13.684067"><ele>822.70</ele></trkpt>
      <trkpt lat="47.923328" lon="13.684082"><ele>825.90</ele></trkpt>
      <trkpt lat="47.923276" lon="13.684224"><ele>828.40</ele></trkpt>
      <trkpt lat="47.923203" lon="13.684423"><ele>831.20</ele></trkpt>
      <trkpt lat="47.923078" lon="13.684918"><ele>834.50</ele></trkpt>
      <trkpt lat="47.922936" lon="13.685302"><ele>838.90</ele></trkpt>
      <trkpt lat="47.922853" lon="13.685464"><ele>843.70</ele></trkpt>
      <trkpt lat="47.922790" lon="13.685516"><ele>848.00</ele></trkpt>
      <trkpt lat="47.922741" lon="13.685557"><ele>850.80</ele></trkpt>
      <trkpt lat="47.922638" lon="13.685577"><ele>852.70</ele></trkpt>
      <trkpt lat="47.922302" lon="13.685560"><ele>856.00</ele></trkpt>
      <trkpt lat="47.922233" lon="13.685581"><ele>859.40</ele></trkpt>
      <trkpt lat="47.921794" lon="13.684702"><ele>864.80</ele></trkpt>
      <trkpt lat="47.921666" lon="13.684338"><ele>870.60</ele></trkpt>
      <trkpt lat="47.921643" lon="13.684305"><ele>874.50</ele></trkpt>
      <trkpt lat="47.921597" lon="13.684295"><ele>878.10</ele></trkpt>
      <trkpt lat="47.921547" lon="13.684373"><ele>879.40</ele></trkpt>
      <trkpt lat="47.921530" lon="13.684669"><ele>880.10</ele></trkpt>
      <trkpt lat="47.921521" lon="13.684812"><ele>881.00</ele></trkpt>
      <trkpt lat="47.921505" lon="13.684905"><ele>881.90</ele></trkpt>
      <trkpt lat="47.921448" lon="13.685026"><ele>882.80</ele></trkpt>
      <trkpt lat="47.921402" lon="13.685084"><ele>883.50</ele></trkpt>
      <trkpt lat="47.921366" lon="13.685112"><ele>884.00</ele></trkpt>
      <trkpt lat="47.921333" lon="13.685184"><ele>884.20</ele></trkpt>
      <trkpt lat="47.921325" lon="13.685239"><ele>884.40</ele></trkpt>
      <trkpt lat="47.921325" lon="13.685239"><ele>884.40</ele></trkpt>
      <trkpt lat="47.921309" lon="13.685340"><ele>884.50</ele></trkpt>
      <trkpt lat="47.921338" lon="13.685464"><ele>884.60</ele></trkpt>
      <trkpt lat="47.921435" lon="13.685566"><ele>885.10</ele></trkpt>
      <trkpt lat="47.921446" lon="13.685679"><ele>885.20</ele></trkpt>
      <trkpt lat="47.921440" lon="13.685917"><ele>885.40</ele></trkpt>
      <trkpt lat="47.921419" lon="13.686148"><ele>885.50</ele></trkpt>
      <trkpt lat="47.921269" lon="13.686813"><ele>886.10</ele></trkpt>
      <trkpt lat="47.921231" lon="13.687185"><ele>886.70</ele></trkpt>
      <trkpt lat="47.921234" lon="13.687344"><ele>887.30</ele></trkpt>
      <trkpt lat="47.921289" lon="13.687585"><ele>887.80</ele></trkpt>
      <trkpt lat="47.921041" lon="13.688558"><ele>890.60</ele></trkpt>
      <trkpt lat="47.920748" lon="13.689573"><ele>896.10</ele></trkpt>
      <trkpt lat="47.920748" lon="13.689573"><ele>906.10</ele></trkpt>
      <trkpt lat="47.920669" lon="13.689900"><ele>909.90</ele></trkpt>
      <trkpt lat="47.920662" lon="13.690195"><ele>910.10</ele></trkpt>
      <trkpt lat="47.920662" lon="13.690195"><ele>910.10</ele></trkpt>
      <trkpt lat="47.920660" lon="13.690249"><ele>910.10</ele></trkpt>
      <trkpt lat="47.920705" lon="13.690583"><ele>910.20</ele></trkpt>
      <trkpt lat="47.920870" lon="13.691464"><ele>910.30</ele></trkpt>
      <trkpt lat="47.921044" lon="13.693438"><ele>910.60</ele></trkpt>
      <trkpt lat="47.921120" lon="13.693597"><ele>911.00</ele></trkpt>
      <trkpt lat="47.921217" lon="13.693974"><ele>911.50</ele></trkpt>
      <trkpt lat="47.921221" lon="13.694158"><ele>911.90</ele></trkpt>
      <trkpt lat="47.921279" lon="13.694444"><ele>912.30</ele></trkpt>
      <trkpt lat="47.921375" lon="13.694731"><ele>912.80</ele></trkpt>
      <trkpt lat="47.921508" lon="13.695032"><ele>913.20</ele></trkpt>
      <trkpt lat="47.921570" lon="13.695566"><ele>915.20</ele></trkpt>
      <trkpt lat="47.921664" lon="13.695909"><ele>919.90</ele></trkpt>
      <trkpt lat="47.921798" lon="13.696518"><ele>929.10</ele></trkpt>
      <trkpt lat="47.921900" lon="13.696859"><ele>936.40</ele></trkpt>
      <trkpt lat="47.921954" lon="13.697040"><ele>938.20</ele></trkpt>
      <trkpt lat="47.922098" lon="13.698060"><ele>937.00</ele></trkpt>
      <trkpt lat="47.922238" lon="13.699056"><ele>933.20</ele></trkpt>
      <trkpt lat="47.922255" lon="13.699106"><ele>931.60</ele></trkpt>
      <trkpt lat="47.922255" lon="13.699106"><ele>931.60</ele></trkpt>
      <trkpt lat="47.922267" lon="13.699144"><ele>931.50</ele></trkpt>
      <trkpt lat="47.922386" lon="13.699347"><ele>931.10</ele></trkpt>
      <trkpt lat="47.922782" lon="13.700815"><ele>927.00</ele></trkpt>
      <trkpt lat="47.922835" lon="13.700935"><ele>924.50</ele></trkpt>
      <trkpt lat="47.922950" lon="13.701122"><ele>920.10</ele></trkpt>
      <trkpt lat="47.923108" lon="13.701324"><ele>914.90</ele></trkpt>
      <trkpt lat="47.923418" lon="13.701665"><ele>910.90</ele></trkpt>
      <trkpt lat="47.923834" lon="13.701931"><ele>903.90</ele></trkpt>
      <trkpt lat="47.924093" lon="13.701937"><ele>899.70</ele></trkpt>
      <trkpt lat="47.924264" lon="13.701962"><ele>902.60</ele></trkpt>
      <trkpt lat="47.924264" lon="13.701962"><ele>902.60</ele></trkpt>
      <trkpt lat="47.924271" lon="13.701963"><ele>902.60</ele></trkpt>
      <trkpt lat="47.924271" lon="13.701963"><ele>902.60</ele></trkpt>
      <trkpt lat="47.924623" lon="13.702014"><ele>903.60</ele></trkpt>
      <trkpt lat="47.924623" lon="13.702014"><ele>903.90</ele></trkpt>
      <trkpt lat="47.924966" lon="13.702709"><ele>904.40</ele></trkpt>
      <trkpt lat="47.925104" lon="13.702830"><ele>905.20</ele></trkpt>
      <trkpt lat="47.925392" lon="13.702846"><ele>905.80</ele></trkpt>
      <trkpt lat="47.925626" lon="13.702913"><ele>906.40</ele></trkpt>
      <trkpt lat="47.925913" lon="13.702916"><ele>906.70</ele></trkpt>
      <trkpt lat="47.926114" lon="13.703093"><ele>906.40</ele></trkpt>
      <trkpt lat="47.926213" lon="13.703339"><ele>905.60</ele></trkpt>
      <trkpt lat="47.926304" lon="13.703725"><ele>904.20</ele></trkpt>
      <trkpt lat="47.926436" lon="13.703977"><ele>902.50</ele></trkpt>
      <trkpt lat="47.926597" lon="13.704442"><ele>900.70</ele></trkpt>
      <trkpt lat="47.927005" lon="13.706033"><ele>897.20</ele></trkpt>
      <trkpt lat="47.927215" lon="13.706523"><ele>893.50</ele></trkpt>
      <trkpt lat="47.927464" lon="13.706779"><ele>890.60</ele></trkpt>
      <trkpt lat="47.928822" lon="13.707571"><ele>890.90</ele></trkpt>
      <trkpt lat="47.928934" lon="13.707697"><ele>897.80</ele></trkpt>
      <trkpt lat="47.929085" lon="13.707953"><ele>899.60</ele></trkpt>
      <trkpt lat="47.929085" lon="13.707953"><ele>899.60</ele></trkpt>
      <trkpt lat="47.929235" lon="13.708352"><ele>898.60</ele></trkpt>
      <trkpt lat="47.929424" lon="13.709093"><ele>897.00</ele></trkpt>
      <trkpt lat="47.929550" lon="13.709312"><ele>895.80</ele></trkpt>
      <trkpt lat="47.929655" lon="13.709495"><ele>893.60</ele></trkpt>
      <trkpt lat="47.929899" lon="13.710333"><ele>890.30</ele></trkpt>
      <trkpt lat="47.929970" lon="13.710505"><ele>887.50</ele></trkpt>
      <trkpt lat="47.930205" lon="13.710854"><ele>884.20</ele></trkpt>
      <trkpt lat="47.930871" lon="13.711725"><ele>879.20</ele></trkpt>
      <trkpt lat="47.931081" lon="13.712386"><ele>874.60</ele></trkpt>
      <trkpt lat="47.931635" lon="13.713701"><ele>867.90</ele></trkpt>
      <trkpt lat="47.931814" lon="13.714145"><ele>862.20</ele></trkpt>
      <trkpt lat="47.931986" lon="13.714317"><ele>858.80</ele></trkpt>
      <trkpt lat="47.932213" lon="13.714832"><ele>856.90</ele></trkpt>
      <trkpt lat="47.932213" lon="13.714832"><ele>857.00</ele></trkpt>
      <trkpt lat="47.932381" lon="13.715586"><ele>856.50</ele></trkpt>
      <trkpt lat="47.932597" lon="13.716994"><ele>854.10</ele></trkpt>
      <trkpt lat="47.932643" lon="13.717175"><ele>851.30</ele></trkpt>
      <trkpt lat="47.932694" lon="13.717380"><ele>848.90</ele></trkpt>
      <trkpt lat="47.932939" lon="13.718077"><ele>847.40</ele></trkpt>
      <trkpt lat="47.932980" lon="13.718312"><ele>847.60</ele></trkpt>
      <trkpt lat="47.933105" lon="13.718814"><ele>848.30</ele></trkpt>
      <trkpt lat="47.933178" lon="13.719407"><ele>848.30</ele></trkpt>
      <trkpt lat="47.933379" lon="13.720147"><ele>847.40</ele></trkpt>
      <trkpt lat="47.933511" lon="13.720745"><ele>845.80</ele></trkpt>
      <trkpt lat="47.933624" lon="13.721402"><ele>843.40</ele></trkpt>
      <trkpt lat="47.933616" lon="13.722045"><ele>840.90</ele></trkpt>
      <trkpt lat="47.933666" lon="13.722636"><ele>838.60</ele></trkpt>
      <trkpt lat="47.933805" lon="13.723533"><ele>836.10</ele></trkpt>
      <trkpt lat="47.933871" lon="13.724524"><ele>833.20</ele></trkpt>
      <trkpt lat="47.934071" lon="13.725518"><ele>828.50</ele></trkpt>
      <trkpt lat="47.934193" lon="13.726752"><ele>823.00</ele></trkpt>
      <trkpt lat="47.934209" lon="13.726845"><ele>820.50</ele></trkpt>
      <trkpt lat="47.934209" lon="13.726845"><ele>819.90</ele></trkpt>
      <trkpt lat="47.934213" lon="13.726866"><ele>819.90</ele></trkpt>
      <trkpt lat="47.934213" lon="13.726866"><ele>819.90</ele></trkpt>
      <trkpt lat="47.934305" lon="13.727390"><ele>819.40</ele></trkpt>
      <trkpt lat="47.934463" lon="13.727905"><ele>818.60</ele></trkpt>
      <trkpt lat="47.934463" lon="13.727905"><ele>818.00</ele></trkpt>
      <trkpt lat="47.934492" lon="13.728286"><ele>817.00</ele></trkpt>
      <trkpt lat="47.934585" lon="13.728796"><ele>815.80</ele></trkpt>
      <trkpt lat="47.934593" lon="13.729287"><ele>814.70</ele></trkpt>
      <trkpt lat="47.934545" lon="13.729748"><ele>812.70</ele></trkpt>
      <trkpt lat="47.934512" lon="13.729878"><ele>810.60</ele></trkpt>
      <trkpt lat="47.934438" lon="13.730163"><ele>808.70</ele></trkpt>
      <trkpt lat="47.934347" lon="13.730637"><ele>806.90</ele></trkpt>
      <trkpt lat="47.934233" lon="13.731036"><ele>805.80</ele></trkpt>
      <trkpt lat="47.934059" lon="13.731598"><ele>805.40</ele></trkpt>
      <trkpt lat="47.934059" lon="13.731598"><ele>805.30</ele></trkpt>
      <trkpt lat="47.934036" lon="13.731876"><ele>805.60</ele></trkpt>
      <trkpt lat="47.934065" lon="13.732349"><ele>806.50</ele></trkpt>
      <trkpt lat="47.933993" lon="13.732953"><ele>807.30</ele></trkpt>
      <trkpt lat="47.934005" lon="13.733127"><ele>808.00</ele></trkpt>
      <trkpt lat="47.933925" lon="13.733362"><ele>808.80</ele></trkpt>
      <trkpt lat="47.933765" lon="13.733649"><ele>809.50</ele></trkpt>
      <trkpt lat="47.933654" lon="13.734140"><ele>810.40</ele></trkpt>
      <trkpt lat="47.933547" lon="13.734512"><ele>811.70</ele></trkpt>
      <trkpt lat="47.933377" lon="13.734883"><ele>811.00</ele></trkpt>
      <trkpt lat="47.933377" lon="13.734883"><ele>811.00</ele></trkpt>
      <trkpt lat="47.933153" lon="13.735370"><ele>810.50</ele></trkpt>
      <trkpt lat="47.932825" lon="13.736353"><ele>807.30</ele></trkpt>
      <trkpt lat="47.932752" lon="13.737543"><ele>801.50</ele></trkpt>
      <trkpt lat="47.932806" lon="13.737872"><ele>793.60</ele></trkpt>
      <trkpt lat="47.932728" lon="13.738371"><ele>784.20</ele></trkpt>
      <trkpt lat="47.932750" lon="13.738777"><ele>775.60</ele></trkpt>
      <trkpt lat="47.932726" lon="13.739031"><ele>770.20</ele></trkpt>
      <trkpt lat="47.932694" lon="13.739370"><ele>764.20</ele></trkpt>
      <trkpt lat="47.932789" lon="13.739718"><ele>757.70</ele></trkpt>
      <trkpt lat="47.932803" lon="13.740170"><ele>749.80</ele></trkpt>
      <trkpt lat="47.932790" lon="13.740545"><ele>740.50</ele></trkpt>
      <trkpt lat="47.932797" lon="13.741262"><ele>728.80</ele></trkpt>
      <trkpt lat="47.932828" lon="13.741518"><ele>718.60</ele></trkpt>
      <trkpt lat="47.932810" lon="13.741853"><ele>709.30</ele></trkpt>
      <trkpt lat="47.932902" lon="13.742188"><ele>700.20</ele></trkpt>
      <trkpt lat="47.933057" lon="13.742505"><ele>693.00</ele></trkpt>
      <trkpt lat="47.933013" lon="13.742718"><ele>686.00</ele></trkpt>
      <trkpt lat="47.932889" lon="13.742730"><ele>679.90</ele></trkpt>
      <trkpt lat="47.932741" lon="13.742859"><ele>674.80</ele></trkpt>
      <trkpt lat="47.932569" lon="13.743164"><ele>670.10</ele></trkpt>
      <trkpt lat="47.932494" lon="13.743475"><ele>665.40</ele></trkpt>
      <trkpt lat="47.932497" lon="13.743864"><ele>660.40</ele></trkpt>
      <trkpt lat="47.932426" lon="13.744386"><ele>655.20</ele></trkpt>
      <trkpt lat="47.932409" lon="13.744697"><ele>651.00</ele></trkpt>
      <trkpt lat="47.932343" lon="13.744812"><ele>647.20</ele></trkpt>
      <trkpt lat="47.932317" lon="13.745259"><ele>643.50</ele></trkpt>
      <trkpt lat="47.932197" lon="13.745600"><ele>640.50</ele></trkpt>
      <trkpt lat="47.932147" lon="13.746033"><ele>637.50</ele></trkpt>
      <trkpt lat="47.932145" lon="13.746546"><ele>633.70</ele></trkpt>
      <trkpt lat="47.932075" lon="13.747162"><ele>628.60</ele></trkpt>
      <trkpt lat="47.931998" lon="13.747586"><ele>622.30</ele></trkpt>
      <trkpt lat="47.932072" lon="13.747708"><ele>616.80</ele></trkpt>
      <trkpt lat="47.932091" lon="13.747912"><ele>611.40</ele></trkpt>
      <trkpt lat="47.932089" lon="13.748179"><ele>607.00</ele></trkpt>
      <trkpt lat="47.932011" lon="13.748652"><ele>602.20</ele></trkpt>
      <trkpt lat="47.931840" lon="13.749318"><ele>594.40</ele></trkpt>
      <trkpt lat="47.931837" lon="13.749593"><ele>586.20</ele></trkpt>
      <trkpt lat="47.931889" lon="13.749873"><ele>577.80</ele></trkpt>
      <trkpt lat="47.931917" lon="13.749854"><ele>571.40</ele></trkpt>
      <trkpt lat="47.932053" lon="13.749760"><ele>567.80</ele></trkpt>
      <trkpt lat="47.932299" lon="13.749660"><ele>564.00</ele></trkpt>
      <trkpt lat="47.932819" lon="13.749197"><ele>558.00</ele></trkpt>
      <trkpt lat="47.933069" lon="13.749196"><ele>551.00</ele></trkpt>
      <trkpt lat="47.933129" lon="13.749463"><ele>543.30</ele></trkpt>
      <trkpt lat="47.933342" lon="13.749935"><ele>535.10</ele></trkpt>
      <trkpt lat="47.933140" lon="13.750184"><ele>530.10</ele></trkpt>
      <trkpt lat="47.933270" lon="13.750481"><ele>525.00</ele></trkpt>
      <trkpt lat="47.933396" lon="13.751113"><ele>518.00</ele></trkpt>
      <trkpt lat="47.933393" lon="13.751447"><ele>511.50</ele></trkpt>
      <trkpt lat="47.933338" lon="13.751679"><ele>504.20</ele></trkpt>
      <trkpt lat="47.933233" lon="13.751883"><ele>497.40</ele></trkpt>
      <trkpt lat="47.933197" lon="13.752089"><ele>492.60</ele></trkpt>
      <trkpt lat="47.933235" lon="13.752695"><ele>486.50</ele></trkpt>
      <trkpt lat="47.933262" lon="13.752857"><ele>480.80</ele></trkpt>
      <trkpt lat="47.933248" lon="13.752932"><ele>476.00</ele></trkpt>
      <trkpt lat="47.933253" lon="13.752993"><ele>470.70</ele></trkpt>
      <trkpt lat="47.933224" lon="13.753027"><ele>468.90</ele></trkpt>
      <trkpt lat="47.933186" lon="13.753223"><ele>466.40</ele></trkpt>
      <trkpt lat="47.933186" lon="13.753223"><ele>466.40</ele></trkpt>
      <trkpt lat="47.933182" lon="13.753246"><ele>465.30</ele></trkpt>
      <trkpt lat="47.932884" lon="13.753169"><ele>464.90</ele></trkpt>
      <trkpt lat="47.932800" lon="13.753577"><ele>466.60</ele></trkpt>
      <trkpt lat="47.932800" lon="13.753577"><ele>466.50</ele></trkpt>
      <trkpt lat="47.932570" lon="13.753500"><ele>466.60</ele></trkpt>
      <trkpt lat="47.932404" lon="13.753476"><ele>466.70</ele></trkpt>
      <trkpt lat="47.932212" lon="13.753487"><ele>466.90</ele></trkpt>
      <trkpt lat="47.931857" lon="13.753554"><ele>467.20</ele></trkpt>
      <trkpt lat="47.931792" lon="13.753600"><ele>467.40</ele></trkpt>
      <trkpt lat="47.931754" lon="13.753670"><ele>467.80</ele></trkpt>
      <trkpt lat="47.931739" lon="13.753738"><ele>467.80</ele></trkpt>
      <trkpt lat="47.931739" lon="13.753738"><ele>467.80</ele></trkpt>
      <trkpt lat="47.931870" lon="13.753832"><ele>468.10</ele></trkpt>
      <trkpt lat="47.931870" lon="13.753832"><ele>468.00</ele></trkpt>
      <trkpt lat="47.932061" lon="13.754174"><ele>468.60</ele></trkpt>
      <trkpt lat="47.932214" lon="13.754354"><ele>469.70</ele></trkpt>
      <trkpt lat="47.932335" lon="13.754462"><ele>471.10</ele></trkpt>
      <trkpt lat="47.932438" lon="13.754601"><ele>472.80</ele></trkpt>
      <trkpt lat="47.932535" lon="13.754855"><ele>474.20</ele></trkpt>
      <trkpt lat="47.932610" lon="13.755217"><ele>475.80</ele></trkpt>
      <trkpt lat="47.932652" lon="13.755618"><ele>477.80</ele></trkpt>
      <trkpt lat="47.932657" lon="13.755983"><ele>480.00</ele></trkpt>
      <trkpt lat="47.932627" lon="13.756383"><ele>482.30</ele></trkpt>
      <trkpt lat="47.932565" lon="13.756847"><ele>484.80</ele></trkpt>
      <trkpt lat="47.932487" lon="13.757080"><ele>486.90</ele></trkpt>
      <trkpt lat="47.932435" lon="13.757289"><ele>488.60</ele></trkpt>
      <trkpt lat="47.932412" lon="13.757610"><ele>489.90</ele></trkpt>
      <trkpt lat="47.932357" lon="13.758057"><ele>490.90</ele></trkpt>
      <trkpt lat="47.932335" lon="13.758305"><ele>492.00</ele></trkpt>
      <trkpt lat="47.932304" lon="13.759121"><ele>493.50</ele></trkpt>
      <trkpt lat="47.932210" lon="13.759542"><ele>495.00</ele></trkpt>
      <trkpt lat="47.932157" lon="13.759662"><ele>496.20</ele></trkpt>
      <trkpt lat="47.932118" lon="13.759702"><ele>497.20</ele></trkpt>
      <trkpt lat="47.932022" lon="13.759744"><ele>497.50</ele></trkpt>
      <trkpt lat="47.931912" lon="13.759716"><ele>497.70</ele></trkpt>
      <trkpt lat="47.931834" lon="13.759614"><ele>498.00</ele></trkpt>
      <trkpt lat="47.931708" lon="13.759514"><ele>498.40</ele></trkpt>
      <trkpt lat="47.931609" lon="13.759473"><ele>498.80</ele></trkpt>
      <trkpt lat="47.931499" lon="13.759461"><ele>499.40</ele></trkpt>
      <trkpt lat="47.931488" lon="13.760764"><ele>499.70</ele></trkpt>
      <trkpt lat="47.931484" lon="13.760765"><ele>500.10</ele></trkpt>
      <trkpt lat="47.931174" lon="13.760839"><ele>500.60</ele></trkpt>
      <trkpt lat="47.930729" lon="13.760899"><ele>501.70</ele></trkpt>
      <trkpt lat="47.930044" lon="13.761005"><ele>504.70</ele></trkpt>
      <trkpt lat="47.929812" lon="13.761022"><ele>508.30</ele></trkpt>
      <trkpt lat="47.929628" lon="13.760957"><ele>512.40</ele></trkpt>
      <trkpt lat="47.929640" lon="13.759785"><ele>515.90</ele></trkpt>
      <trkpt lat="47.929622" lon="13.759292"><ele>517.60</ele></trkpt>
      <trkpt lat="47.929529" lon="13.758647"><ele>518.50</ele></trkpt>
      <trkpt lat="47.929393" lon="13.758496"><ele>519.40</ele></trkpt>
      <trkpt lat="47.929067" lon="13.758230"><ele>521.50</ele></trkpt>
      <trkpt lat="47.928950" lon="13.758180"><ele>523.90</ele></trkpt>
      <trkpt lat="47.928717" lon="13.758178"><ele>527.10</ele></trkpt>
      <trkpt lat="47.928601" lon="13.758114"><ele>530.20</ele></trkpt>
      <trkpt lat="47.928423" lon="13.757869"><ele>532.80</ele></trkpt>
      <trkpt lat="47.928066" lon="13.757625"><ele>536.30</ele></trkpt>
      <trkpt lat="47.927980" lon="13.757601"><ele>539.40</ele></trkpt>
      <trkpt lat="47.927898" lon="13.757630"><ele>542.30</ele></trkpt>
      <trkpt lat="47.927804" lon="13.757741"><ele>544.80</ele></trkpt>
      <trkpt lat="47.927700" lon="13.758016"><ele>545.60</ele></trkpt>
      <trkpt lat="47.927714" lon="13.758462"><ele>546.90</ele></trkpt>
      <trkpt lat="47.927537" lon="13.758716"><ele>548.80</ele></trkpt>
      <trkpt lat="47.926757" lon="13.757791"><ele>550.10</ele></trkpt>
      <trkpt lat="47.926565" lon="13.757591"><ele>551.70</ele></trkpt>
      <trkpt lat="47.926410" lon="13.757497"><ele>552.40</ele></trkpt>
      <trkpt lat="47.926277" lon="13.757455"><ele>552.00</ele></trkpt>
      <trkpt lat="47.925956" lon="13.757437"><ele>551.80</ele></trkpt>
      <trkpt lat="47.925855" lon="13.757443"><ele>551.90</ele></trkpt>
      <trkpt lat="47.925855" lon="13.757443"><ele>551.90</ele></trkpt>
      <trkpt lat="47.925842" lon="13.757444"><ele>551.90</ele></trkpt>
      <trkpt lat="47.925842" lon="13.757444"><ele>551.90</ele></trkpt>
      <trkpt lat="47.925607" lon="13.757458"><ele>552.00</ele></trkpt>
      <trkpt lat="47.925095" lon="13.757347"><ele>552.30</ele></trkpt>
      <trkpt lat="47.924515" lon="13.757309"><ele>552.80</ele></trkpt>
      <trkpt lat="47.924063" lon="13.757306"><ele>554.60</ele></trkpt>
      <trkpt lat="47.923796" lon="13.757350"><ele>557.00</ele></trkpt>
      <trkpt lat="47.923560" lon="13.757407"><ele>559.80</ele></trkpt>
      <trkpt lat="47.923220" lon="13.757611"><ele>563.20</ele></trkpt>
      <trkpt lat="47.923054" lon="13.757666"><ele>565.60</ele></trkpt>
      <trkpt lat="47.922889" lon="13.757676"><ele>567.40</ele></trkpt>
      <trkpt lat="47.922851" lon="13.757653"><ele>568.70</ele></trkpt>
      <trkpt lat="47.922822" lon="13.757617"><ele>569.20</ele></trkpt>
      <trkpt lat="47.922789" lon="13.757502"><ele>569.50</ele></trkpt>
      <trkpt lat="47.922801" lon="13.757398"><ele>569.90</ele></trkpt>
      <trkpt lat="47.922837" lon="13.757298"><ele>570.40</ele></trkpt>
      <trkpt lat="47.922865" lon="13.757241"><ele>571.50</ele></trkpt>
      <trkpt lat="47.922865" lon="13.757241"><ele>571.50</ele></trkpt>
      <trkpt lat="47.922868" lon="13.757234"><ele>571.50</ele></trkpt>
      <trkpt lat="47.922868" lon="13.757234"><ele>571.50</ele></trkpt>
      <trkpt lat="47.923100" lon="13.756765"><ele>572.00</ele></trkpt>
      <trkpt lat="47.923220" lon="13.756582"><ele>572.40</ele></trkpt>
      <trkpt lat="47.923282" lon="13.756519"><ele>572.60</ele></trkpt>
      <trkpt lat="47.923409" lon="13.756446"><ele>573.30</ele></trkpt>
      <trkpt lat="47.923765" lon="13.756345"><ele>574.10</ele></trkpt>
      <trkpt lat="47.923819" lon="13.756292"><ele>573.90</ele></trkpt>
      <trkpt lat="47.923836" lon="13.756207"><ele>574.10</ele></trkpt>
      <trkpt lat="47.923808" lon="13.756139"><ele>574.30</ele></trkpt>
      <trkpt lat="47.923771" lon="13.756123"><ele>574.20</ele></trkpt>
      <trkpt lat="47.923648" lon="13.756139"><ele>575.20</ele></trkpt>
      <trkpt lat="47.923242" lon="13.756324"><ele>576.80</ele></trkpt>
      <trkpt lat="47.922892" lon="13.756483"><ele>579.20</ele></trkpt>
      <trkpt lat="47.922669" lon="13.756635"><ele>582.20</ele></trkpt>
      <trkpt lat="47.921767" lon="13.757344"><ele>587.50</ele></trkpt>
      <trkpt lat="47.921706" lon="13.757410"><ele>591.90</ele></trkpt>
      <trkpt lat="47.921611" lon="13.757581"><ele>595.70</ele></trkpt>
      <trkpt lat="47.921370" lon="13.758309"><ele>599.80</ele></trkpt>
      <trkpt lat="47.921229" lon="13.758796"><ele>602.20</ele></trkpt>
      <trkpt lat="47.921120" lon="13.759671"><ele>606.00</ele></trkpt>
      <trkpt lat="47.920971" lon="13.760953"><ele>612.10</ele></trkpt>
      <trkpt lat="47.920946" lon="13.761283"><ele>618.00</ele></trkpt>
      <trkpt lat="47.920974" lon="13.761450"><ele>623.30</ele></trkpt>
      <trkpt lat="47.921039" lon="13.761610"><ele>627.40</ele></trkpt>
      <trkpt lat="47.921068" lon="13.761723"><ele>629.10</ele></trkpt>
      <trkpt lat="47.921059" lon="13.761812"><ele>630.20</ele></trkpt>
      <trkpt lat="47.920998" lon="13.761850"><ele>630.50</ele></trkpt>
      <trkpt lat="47.920900" lon="13.761838"><ele>630.90</ele></trkpt>
      <trkpt lat="47.920519" lon="13.761579"><ele>632.90</ele></trkpt>
      <trkpt lat="47.920336" lon="13.761282"><ele>635.90</ele></trkpt>
      <trkpt lat="47.920237" lon="13.761043"><ele>640.00</ele></trkpt>
      <trkpt lat="47.920128" lon="13.760630"><ele>645.00</ele></trkpt>
      <trkpt lat="47.919951" lon="13.760120"><ele>649.80</ele></trkpt>
      <trkpt lat="47.919892" lon="13.759855"><ele>654.10</ele></trkpt>
      <trkpt lat="47.919832" lon="13.759416"><ele>658.30</ele></trkpt>
      <trkpt lat="47.919788" lon="13.759206"><ele>661.80</ele></trkpt>
      <trkpt lat="47.919788" lon="13.759206"><ele>663.90</ele></trkpt>
      <trkpt lat="47.919757" lon="13.759130"><ele>665.50</ele></trkpt>
      <trkpt lat="47.919609" lon="13.758901"><ele>666.70</ele></trkpt>
      <trkpt lat="47.919433" lon="13.758696"><ele>667.60</ele></trkpt>
      <trkpt lat="47.919357" lon="13.758674"><ele>668.80</ele></trkpt>
      <trkpt lat="47.919297" lon="13.758698"><ele>670.10</ele></trkpt>
      <trkpt lat="47.919273" lon="13.758752"><ele>671.40</ele></trkpt>
      <trkpt lat="47.919267" lon="13.758822"><ele>672.40</ele></trkpt>
      <trkpt lat="47.919294" lon="13.758902"><ele>672.80</ele></trkpt>
      <trkpt lat="47.919464" lon="13.759118"><ele>673.40</ele></trkpt>
      <trkpt lat="47.919524" lon="13.759358"><ele>674.30</ele></trkpt>
      <trkpt lat="47.919525" lon="13.759496"><ele>675.20</ele></trkpt>
      <trkpt lat="47.919488" lon="13.759722"><ele>676.60</ele></trkpt>
      <trkpt lat="47.919360" lon="13.760284"><ele>678.50</ele></trkpt>
      <trkpt lat="47.919269" lon="13.760617"><ele>680.50</ele></trkpt>
      <trkpt lat="47.919145" lon="13.760954"><ele>682.90</ele></trkpt>
      <trkpt lat="47.919054" lon="13.761128"><ele>685.20</ele></trkpt>
      <trkpt lat="47.918949" lon="13.761274"><ele>686.70</ele></trkpt>
      <trkpt lat="47.918521" lon="13.761708"><ele>689.00</ele></trkpt>
      <trkpt lat="47.918379" lon="13.761821"><ele>691.70</ele></trkpt>
      <trkpt lat="47.918352" lon="13.761784"><ele>695.50</ele></trkpt>
      <trkpt lat="47.918352" lon="13.761784"><ele>695.50</ele></trkpt>
      <trkpt lat="47.918379" lon="13.761821"><ele>693.80</ele></trkpt>
      <trkpt lat="47.918359" lon="13.761862"><ele>687.20</ele></trkpt>
      <trkpt lat="47.918359" lon="13.761862"><ele>687.20</ele></trkpt>
      <trkpt lat="47.918045" lon="13.762523"><ele>684.70</ele></trkpt>
      <trkpt lat="47.917881" lon="13.762881"><ele>682.40</ele></trkpt>
      <trkpt lat="47.917827" lon="13.762962"><ele>680.60</ele></trkpt>
      <trkpt lat="47.917676" lon="13.763004"><ele>676.60</ele></trkpt>
      <trkpt lat="47.917453" lon="13.762962"><ele>672.10</ele></trkpt>
      <trkpt lat="47.917144" lon="13.762752"><ele>667.20</ele></trkpt>
      <trkpt lat="47.916975" lon="13.762533"><ele>662.40</ele></trkpt>
      <trkpt lat="47.916597" lon="13.762141"><ele>657.70</ele></trkpt>
      <trkpt lat="47.916396" lon="13.761889"><ele>654.20</ele></trkpt>
      <trkpt lat="47.916170" lon="13.761679"><ele>650.80</ele></trkpt>
      <trkpt lat="47.916090" lon="13.761454"><ele>646.80</ele></trkpt>
      <trkpt lat="47.916018" lon="13.760875"><ele>643.20</ele></trkpt>
      <trkpt lat="47.915965" lon="13.760784"><ele>639.80</ele></trkpt>
      <trkpt lat="47.915860" lon="13.760741"><ele>637.50</ele></trkpt>
      <trkpt lat="47.915734" lon="13.760810"><ele>635.80</ele></trkpt>
      <trkpt lat="47.915562" lon="13.760778"><ele>634.20</ele></trkpt>
      <trkpt lat="47.915562" lon="13.760778"><ele>632.50</ele></trkpt>
      <trkpt lat="47.915462" lon="13.760549"><ele>630.80</ele></trkpt>
      <trkpt lat="47.915335" lon="13.760185"><ele>628.70</ele></trkpt>
      <trkpt lat="47.915201" lon="13.760601"><ele>625.70</ele></trkpt>
      <trkpt lat="47.914969" lon="13.760526"><ele>620.40</ele></trkpt>
      <trkpt lat="47.914763" lon="13.760417"><ele>613.00</ele></trkpt>
      <trkpt lat="47.914594" lon="13.760418"><ele>605.80</ele></trkpt>
      <trkpt lat="47.914420" lon="13.760458"><ele>596.20</ele></trkpt>
      <trkpt lat="47.914283" lon="13.760304"><ele>591.50</ele></trkpt>
      <trkpt lat="47.913884" lon="13.760344"><ele>580.00</ele></trkpt>
      <trkpt lat="47.913861" lon="13.760391"><ele>579.40</ele></trkpt>
      <trkpt lat="47.913833" lon="13.760429"><ele>574.60</ele></trkpt>
      <trkpt lat="47.913833" lon="13.760429"><ele>574.60</ele></trkpt>
      <trkpt lat="47.913651" lon="13.760682"><ele>572.50</ele></trkpt>
      <trkpt lat="47.913325" lon="13.760566"><ele>569.40</ele></trkpt>
      <trkpt lat="47.913144" lon="13.760577"><ele>566.80</ele></trkpt>
      <trkpt lat="47.913073" lon="13.760629"><ele>562.50</ele></trkpt>
      <trkpt lat="47.912968" lon="13.760651"><ele>558.60</ele></trkpt>
      <trkpt lat="47.912534" lon="13.760673"><ele>554.00</ele></trkpt>
      <trkpt lat="47.912457" lon="13.760635"><ele>550.00</ele></trkpt>
      <trkpt lat="47.912277" lon="13.760726"><ele>542.00</ele></trkpt>
      <trkpt lat="47.911856" lon="13.760876"><ele>533.20</ele></trkpt>
      <trkpt lat="47.911796" lon="13.761150"><ele>526.30</ele></trkpt>
      <trkpt lat="47.911796" lon="13.761150"><ele>526.30</ele></trkpt>
      <trkpt lat="47.911788" lon="13.761187"><ele>524.60</ele></trkpt>
      <trkpt lat="47.911756" lon="13.761099"><ele>523.60</ele></trkpt>
      <trkpt lat="47.911742" lon="13.760548"><ele>524.00</ele></trkpt>
      <trkpt lat="47.911691" lon="13.760468"><ele>524.00</ele></trkpt>
      <trkpt lat="47.911656" lon="13.760464"><ele>523.70</ele></trkpt>
      <trkpt lat="47.911608" lon="13.760556"><ele>523.50</ele></trkpt>
      <trkpt lat="47.911577" lon="13.760927"><ele>521.90</ele></trkpt>
      <trkpt lat="47.911471" lon="13.761380"><ele>519.30</ele></trkpt>
      <trkpt lat="47.911448" lon="13.761733"><ele>516.10</ele></trkpt>
      <trkpt lat="47.911489" lon="13.762069"><ele>512.50</ele></trkpt>
      <trkpt lat="47.911583" lon="13.762639"><ele>508.80</ele></trkpt>
      <trkpt lat="47.911574" lon="13.762805"><ele>506.10</ele></trkpt>
      <trkpt lat="47.911485" lon="13.763113"><ele>503.60</ele></trkpt>
      <trkpt lat="47.911448" lon="13.763782"><ele>500.40</ele></trkpt>
      <trkpt lat="47.911462" lon="13.764013"><ele>497.70</ele></trkpt>
      <trkpt lat="47.911472" lon="13.764105"><ele>495.30</ele></trkpt>
      <trkpt lat="47.911578" lon="13.764477"><ele>492.80</ele></trkpt>
      <trkpt lat="47.911787" lon="13.765033"><ele>491.30</ele></trkpt>
      <trkpt lat="47.912161" lon="13.765923"><ele>490.00</ele></trkpt>
      <trkpt lat="47.912161" lon="13.765923"><ele>490.00</ele></trkpt>
      <trkpt lat="47.912169" lon="13.765942"><ele>490.00</ele></trkpt>
      <trkpt lat="47.912169" lon="13.765942"><ele>490.00</ele></trkpt>
      <trkpt lat="47.912199" lon="13.766014"><ele>489.80</ele></trkpt>
      <trkpt lat="47.912164" lon="13.766053"><ele>489.80</ele></trkpt>
      <trkpt lat="47.911874" lon="13.766365"><ele>489.90</ele></trkpt>
      <trkpt lat="47.911822" lon="13.766442"><ele>489.90</ele></trkpt>
      <trkpt lat="47.911822" lon="13.766442"><ele>489.90</ele></trkpt>
      <trkpt lat="47.911773" lon="13.766513"><ele>489.90</ele></trkpt>
      <trkpt lat="47.911672" lon="13.766692"><ele>490.60</ele></trkpt>
      <trkpt lat="47.911593" lon="13.766873"><ele>491.90</ele></trkpt>
      <trkpt lat="47.911593" lon="13.766873"><ele>491.90</ele></trkpt>
      <trkpt lat="47.911592" lon="13.766877"><ele>492.20</ele></trkpt>
      <trkpt lat="47.911513" lon="13.766802"><ele>492.70</ele></trkpt>
      <trkpt lat="47.911513" lon="13.766802"><ele>492.70</ele></trkpt>
      <trkpt lat="47.911483" lon="13.766773"><ele>492.80</ele></trkpt>
      <trkpt lat="47.910976" lon="13.766227"><ele>493.40</ele></trkpt>
      <trkpt lat="47.910740" lon="13.765874"><ele>494.00</ele></trkpt>
      <trkpt lat="47.910699" lon="13.765783"><ele>494.90</ele></trkpt>
      <trkpt lat="47.910556" lon="13.765457"><ele>495.90</ele></trkpt>
      <trkpt lat="47.910250" lon="13.764795"><ele>496.70</ele></trkpt>
      <trkpt lat="47.910008" lon="13.764406"><ele>497.40</ele></trkpt>
      <trkpt lat="47.909695" lon="13.763991"><ele>498.40</ele></trkpt>
      <trkpt lat="47.909542" lon="13.763797"><ele>498.50</ele></trkpt>
      <trkpt lat="47.909301" lon="13.763499"><ele>498.40</ele></trkpt>
      <trkpt lat="47.909301" lon="13.763499"><ele>498.40</ele></trkpt>
      <trkpt lat="47.909298" lon="13.763495"><ele>498.40</ele></trkpt>
      <trkpt lat="47.909298" lon="13.763495"><ele>498.40</ele></trkpt>
      <trkpt lat="47.909051" lon="13.763190"><ele>498.40</ele></trkpt>
      <trkpt lat="47.908905" lon="13.763034"><ele>498.40</ele></trkpt>
      <trkpt lat="47.908546" lon="13.762735"><ele>497.90</ele></trkpt>
      <trkpt lat="47.908308" lon="13.762525"><ele>497.00</ele></trkpt>
      <trkpt lat="47.908308" lon="13.762525"><ele>497.00</ele></trkpt>
      <trkpt lat="47.908100" lon="13.762342"><ele>496.50</ele></trkpt>
      <trkpt lat="47.907916" lon="13.762109"><ele>496.40</ele></trkpt>
      <trkpt lat="47.907594" lon="13.761666"><ele>496.10</ele></trkpt>
      <trkpt lat="47.907009" lon="13.760780"><ele>495.20</ele></trkpt>
      <trkpt lat="47.906909" lon="13.760568"><ele>494.30</ele></trkpt>
      <trkpt lat="47.906909" lon="13.760568"><ele>494.30</ele></trkpt>
      <trkpt lat="47.906891" lon="13.760528"><ele>494.10</ele></trkpt>
      <trkpt lat="47.906788" lon="13.760245"><ele>492.70</ele></trkpt>
      <trkpt lat="47.906683" lon="13.760080"><ele>491.30</ele></trkpt>
      <trkpt lat="47.906141" lon="13.759609"><ele>490.70</ele></trkpt>
      <trkpt lat="47.905996" lon="13.759400"><ele>490.30</ele></trkpt>
      <trkpt lat="47.905880" lon="13.759253"><ele>490.20</ele></trkpt>
      <trkpt lat="47.905646" lon="13.759038"><ele>490.40</ele></trkpt>
      <trkpt lat="47.905615" lon="13.758979"><ele>490.40</ele></trkpt>
      <trkpt lat="47.905520" lon="13.758665"><ele>490.40</ele></trkpt>
      <trkpt lat="47.905464" lon="13.758593"><ele>490.50</ele></trkpt>
      <trkpt lat="47.905421" lon="13.758580"><ele>490.60</ele></trkpt>
      <trkpt lat="47.905202" lon="13.758581"><ele>491.00</ele></trkpt>
      <trkpt lat="47.905188" lon="13.758502"><ele>491.40</ele></trkpt>
      <trkpt lat="47.905127" lon="13.758350"><ele>491.90</ele></trkpt>
      <trkpt lat="47.905109" lon="13.758060"><ele>492.60</ele></trkpt>
      <trkpt lat="47.905059" lon="13.757933"><ele>493.10</ele></trkpt>
      <trkpt lat="47.904686" lon="13.757348"><ele>494.30</ele></trkpt>
      <trkpt lat="47.904440" lon="13.756887"><ele>495.80</ele></trkpt>
      <trkpt lat="47.904161" lon="13.756542"><ele>497.50</ele></trkpt>
      <trkpt lat="47.904196" lon="13.756208"><ele>499.90</ele></trkpt>
      <trkpt lat="47.904218" lon="13.756032"><ele>501.90</ele></trkpt>
      <trkpt lat="47.904399" lon="13.755997"><ele>504.30</ele></trkpt>
      <trkpt lat="47.904482" lon="13.755946"><ele>506.60</ele></trkpt>
      <trkpt lat="47.904596" lon="13.755697"><ele>509.20</ele></trkpt>
      <trkpt lat="47.904759" lon="13.755165"><ele>513.40</ele></trkpt>
      <trkpt lat="47.904805" lon="13.754909"><ele>517.50</ele></trkpt>
      <trkpt lat="47.904788" lon="13.754731"><ele>524.40</ele></trkpt>
      <trkpt lat="47.904716" lon="13.754568"><ele>528.40</ele></trkpt>
      <trkpt lat="47.904447" lon="13.754261"><ele>527.80</ele></trkpt>
      <trkpt lat="47.904447" lon="13.754261"><ele>527.80</ele></trkpt>
      <trkpt lat="47.904063" lon="13.753822"><ele>525.60</ele></trkpt>
      <trkpt lat="47.904012" lon="13.753777"><ele>523.10</ele></trkpt>
      <trkpt lat="47.903892" lon="13.753737"><ele>519.00</ele></trkpt>
      <trkpt lat="47.903763" lon="13.753765"><ele>515.70</ele></trkpt>
      <trkpt lat="47.903579" lon="13.753870"><ele>512.50</ele></trkpt>
      <trkpt lat="47.903381" lon="13.754059"><ele>509.20</ele></trkpt>
      <trkpt lat="47.903137" lon="13.754389"><ele>507.20</ele></trkpt>
      <trkpt lat="47.903058" lon="13.754467"><ele>506.00</ele></trkpt>
      <trkpt lat="47.902848" lon="13.754588"><ele>505.30</ele></trkpt>
      <trkpt lat="47.902815" lon="13.754489"><ele>505.70</ele></trkpt>
      <trkpt lat="47.902636" lon="13.754405"><ele>505.20</ele></trkpt>
    </trkseg>
  </trk>
</gpx>
