<?xml version="1.0" encoding="UTF-8"?>
<gpx version="1.1" creator="hongar.markus-schwarz.cc" xmlns="http://www.topografix.com/GPX/1/1">
  <metadata><name>Hongar – Reindlmühl</name></metadata>
  <trk>
    <name>Hongar – Reindlmühl</name>
    <trkseg>
      <trkpt lat="47.894843" lon="13.714448"><ele>523.50</ele></trkpt>
      <trkpt lat="47.894957" lon="13.714691"><ele>523.60</ele></trkpt>
      <trkpt lat="47.894892" lon="13.714760"><ele>523.80</ele></trkpt>
      <trkpt lat="47.894936" lon="13.714856"><ele>523.80</ele></trkpt>
      <trkpt lat="47.895511" lon="13.714211"><ele>522.40</ele></trkpt>
      <trkpt lat="47.896303" lon="13.714040"><ele>522.00</ele></trkpt>
      <trkpt lat="47.897037" lon="13.713738"><ele>521.90</ele></trkpt>
      <trkpt lat="47.898348" lon="13.712529"><ele>520.70</ele></trkpt>
      <trkpt lat="47.898944" lon="13.711702"><ele>519.80</ele></trkpt>
      <trkpt lat="47.899728" lon="13.711342"><ele>519.10</ele></trkpt>
      <trkpt lat="47.900141" lon="13.710851"><ele>519.50</ele></trkpt>
      <trkpt lat="47.900461" lon="13.710687"><ele>519.40</ele></trkpt>
      <trkpt lat="47.900273" lon="13.709117"><ele>523.20</ele></trkpt>
      <trkpt lat="47.899845" lon="13.708070"><ele>524.30</ele></trkpt>
      <trkpt lat="47.899544" lon="13.707646"><ele>524.80</ele></trkpt>
      <trkpt lat="47.899033" lon="13.707239"><ele>524.10</ele></trkpt>
      <trkpt lat="47.898790" lon="13.706724"><ele>525.50</ele></trkpt>
      <trkpt lat="47.898328" lon="13.704905"><ele>527.20</ele></trkpt>
      <trkpt lat="47.898283" lon="13.703693"><ele>530.40</ele></trkpt>
      <trkpt lat="47.898034" lon="13.703195"><ele>531.80</ele></trkpt>
      <trkpt lat="47.898163" lon="13.702121"><ele>533.70</ele></trkpt>
      <trkpt lat="47.898163" lon="13.700556"><ele>536.50</ele></trkpt>
      <trkpt lat="47.898319" lon="13.699995"><ele>538.30</ele></trkpt>
      <trkpt lat="47.898521" lon="13.699482"><ele>536.70</ele></trkpt>
      <trkpt lat="47.899103" lon="13.698472"><ele>539.10</ele></trkpt>
      <trkpt lat="47.899248" lon="13.697930"><ele>540.60</ele></trkpt>
      <trkpt lat="47.899772" lon="13.696793"><ele>543.20</ele></trkpt>
      <trkpt lat="47.900669" lon="13.695724"><ele>547.30</ele></trkpt>
      <trkpt lat="47.901082" lon="13.695520"><ele>546.10</ele></trkpt>
      <trkpt lat="47.901431" lon="13.695611"><ele>547.20</ele></trkpt>
      <trkpt lat="47.902087" lon="13.695477"><ele>548.70</ele></trkpt>
      <trkpt lat="47.903464" lon="13.694787"><ele>551.20</ele></trkpt>
      <trkpt lat="47.904964" lon="13.694383"><ele>556.00</ele></trkpt>
      <trkpt lat="47.905380" lon="13.693968"><ele>558.30</ele></trkpt>
      <trkpt lat="47.905873" lon="13.693690"><ele>560.10</ele></trkpt>
      <trkpt lat="47.906054" lon="13.693674"><ele>560.50</ele></trkpt>
      <trkpt lat="47.906615" lon="13.693856"><ele>561.60</ele></trkpt>
      <trkpt lat="47.907166" lon="13.693646"><ele>563.90</ele></trkpt>
      <trkpt lat="47.907625" lon="13.694220"><ele>569.70</ele></trkpt>
      <trkpt lat="47.907564" lon="13.693736"><ele>573.90</ele></trkpt>
      <trkpt lat="47.908068" lon="13.693803"><ele>594.20</ele></trkpt>
      <trkpt lat="47.908250" lon="13.693729"><ele>596.10</ele></trkpt>
      <trkpt lat="47.909044" lon="13.692897"><ele>613.30</ele></trkpt>
      <trkpt lat="47.909108" lon="13.692580"><ele>613.60</ele></trkpt>
      <trkpt lat="47.909646" lon="13.692360"><ele>621.10</ele></trkpt>
      <trkpt lat="47.911049" lon="13.690993"><ele>665.90</ele></trkpt>
      <trkpt lat="47.911425" lon="13.690532"><ele>677.80</ele></trkpt>
      <trkpt lat="47.912403" lon="13.689900"><ele>704.40</ele></trkpt>
      <trkpt lat="47.912716" lon="13.689561"><ele>713.20</ele></trkpt>
      <trkpt lat="47.913787" lon="13.688788"><ele>752.80</ele></trkpt>
      <trkpt lat="47.914540" lon="13.688856"><ele>767.70</ele></trkpt>
      <trkpt lat="47.914878" lon="13.689135"><ele>772.80</ele></trkpt>
      <trkpt lat="47.915324" lon="13.689256"><ele>787.40</ele></trkpt>
      <trkpt lat="47.915622" lon="13.689432"><ele>787.60</ele></trkpt>
      <trkpt lat="47.916129" lon="13.689232"><ele>785.70</ele></trkpt>
      <trkpt lat="47.916436" lon="13.689222"><ele>784.80</ele></trkpt>
      <trkpt lat="47.916747" lon="13.689107"><ele>786.40</ele></trkpt>
      <trkpt lat="47.916972" lon="13.689136"><ele>788.70</ele></trkpt>
      <trkpt lat="47.917689" lon="13.689466"><ele>808.40</ele></trkpt>
      <trkpt lat="47.917753" lon="13.689438"><ele>810.40</ele></trkpt>
      <trkpt lat="47.918237" lon="13.689041"><ele>824.30</ele></trkpt>
      <trkpt lat="47.918819" lon="13.688209"><ele>837.20</ele></trkpt>
      <trkpt lat="47.919618" lon="13.687704"><ele>853.60</ele></trkpt>
      <trkpt lat="47.919732" lon="13.687331"><ele>853.70</ele></trkpt>
      <trkpt lat="47.919866" lon="13.687234"><ele>856.10</ele></trkpt>
      <trkpt lat="47.920004" lon="13.687259"><ele>859.50</ele></trkpt>
      <trkpt lat="47.920189" lon="13.687412"><ele>868.60</ele></trkpt>
      <trkpt lat="47.920337" lon="13.687765"><ele>876.70</ele></trkpt>
      <trkpt lat="47.920432" lon="13.687854"><ele>880.40</ele></trkpt>
      <trkpt lat="47.920586" lon="13.687830"><ele>882.00</ele></trkpt>
      <trkpt lat="47.921174" lon="13.687255"><ele>886.90</ele></trkpt>
      <trkpt lat="47.921231" lon="13.687185"><ele>887.70</ele></trkpt>
      <trkpt lat="47.921419" lon="13.686148"><ele>885.40</ele></trkpt>
      <trkpt lat="47.921435" lon="13.685566"><ele>883.20</ele></trkpt>
      <trkpt lat="47.921309" lon="13.685340"><ele>880.80</ele></trkpt>
      <trkpt lat="47.921407" lon="13.685078"><ele>884.00</ele></trkpt>
    </trkseg>
  </trk>
</gpx>
