<?xml version="1.0" encoding="UTF-8"?>
<gpx version="1.1" creator="hongar.markus-schwarz.cc" xmlns="http://www.topografix.com/GPX/1/1">
  <metadata><name>Hongar – Weyregg</name></metadata>
  <trk>
    <name>Hongar – Weyregg</name>
    <trkseg>
      <trkpt lat="47.901893" lon="13.566750"><ele>471.00</ele></trkpt>
      <trkpt lat="47.901349" lon="13.567610"><ele>471.10</ele></trkpt>
      <trkpt lat="47.901122" lon="13.567771"><ele>470.70</ele></trkpt>
      <trkpt lat="47.900719" lon="13.568638"><ele>470.10</ele></trkpt>
      <trkpt lat="47.901034" lon="13.569460"><ele>472.30</ele></trkpt>
      <trkpt lat="47.901063" lon="13.569722"><ele>472.80</ele></trkpt>
      <trkpt lat="47.901296" lon="13.569927"><ele>473.60</ele></trkpt>
      <trkpt lat="47.901983" lon="13.570851"><ele>476.10</ele></trkpt>
      <trkpt lat="47.902681" lon="13.571982"><ele>478.60</ele></trkpt>
      <trkpt lat="47.902270" lon="13.572385"><ele>482.70</ele></trkpt>
      <trkpt lat="47.902323" lon="13.572592"><ele>483.20</ele></trkpt>
      <trkpt lat="47.902138" lon="13.572735"><ele>483.80</ele></trkpt>
      <trkpt lat="47.902180" lon="13.572945"><ele>484.50</ele></trkpt>
      <trkpt lat="47.902119" lon="13.573443"><ele>486.70</ele></trkpt>
      <trkpt lat="47.902181" lon="13.573635"><ele>488.20</ele></trkpt>
      <trkpt lat="47.901814" lon="13.574237"><ele>492.80</ele></trkpt>
      <trkpt lat="47.902030" lon="13.575497"><ele>501.60</ele></trkpt>
      <trkpt lat="47.902012" lon="13.575721"><ele>503.10</ele></trkpt>
      <trkpt lat="47.901899" lon="13.575883"><ele>504.00</ele></trkpt>
      <trkpt lat="47.901537" lon="13.576161"><ele>505.50</ele></trkpt>
      <trkpt lat="47.901257" lon="13.576638"><ele>508.30</ele></trkpt>
      <trkpt lat="47.900852" lon="13.578143"><ele>513.90</ele></trkpt>
      <trkpt lat="47.900649" lon="13.578419"><ele>509.70</ele></trkpt>
      <trkpt lat="47.900562" lon="13.578696"><ele>501.70</ele></trkpt>
      <trkpt lat="47.900625" lon="13.579040"><ele>492.70</ele></trkpt>
      <trkpt lat="47.900879" lon="13.579427"><ele>492.30</ele></trkpt>
      <trkpt lat="47.900430" lon="13.580996"><ele>496.20</ele></trkpt>
      <trkpt lat="47.900476" lon="13.581537"><ele>498.80</ele></trkpt>
      <trkpt lat="47.900708" lon="13.582373"><ele>506.60</ele></trkpt>
      <trkpt lat="47.900596" lon="13.582876"><ele>520.60</ele></trkpt>
      <trkpt lat="47.900319" lon="13.583194"><ele>531.20</ele></trkpt>
      <trkpt lat="47.900080" lon="13.583725"><ele>542.60</ele></trkpt>
      <trkpt lat="47.900008" lon="13.584361"><ele>548.00</ele></trkpt>
      <trkpt lat="47.899291" lon="13.585923"><ele>567.40</ele></trkpt>
      <trkpt lat="47.899000" lon="13.586314"><ele>572.30</ele></trkpt>
      <trkpt lat="47.898260" lon="13.588379"><ele>603.40</ele></trkpt>
      <trkpt lat="47.898249" lon="13.589253"><ele>617.10</ele></trkpt>
      <trkpt lat="47.898323" lon="13.589294"><ele>616.70</ele></trkpt>
      <trkpt lat="47.898382" lon="13.589504"><ele>619.30</ele></trkpt>
      <trkpt lat="47.898449" lon="13.590692"><ele>624.40</ele></trkpt>
      <trkpt lat="47.898747" lon="13.592116"><ele>626.60</ele></trkpt>
      <trkpt lat="47.898671" lon="13.592666"><ele>628.60</ele></trkpt>
      <trkpt lat="47.898255" lon="13.593266"><ele>636.40</ele></trkpt>
      <trkpt lat="47.898173" lon="13.593531"><ele>639.10</ele></trkpt>
      <trkpt lat="47.898159" lon="13.594627"><ele>650.40</ele></trkpt>
      <trkpt lat="47.898062" lon="13.595081"><ele>654.70</ele></trkpt>
      <trkpt lat="47.898052" lon="13.595619"><ele>661.00</ele></trkpt>
      <trkpt lat="47.898266" lon="13.595833"><ele>663.40</ele></trkpt>
      <trkpt lat="47.898058" lon="13.596010"><ele>665.60</ele></trkpt>
      <trkpt lat="47.897990" lon="13.596388"><ele>668.90</ele></trkpt>
      <trkpt lat="47.898584" lon="13.598633"><ele>685.00</ele></trkpt>
      <trkpt lat="47.899044" lon="13.599926"><ele>696.20</ele></trkpt>
      <trkpt lat="47.899163" lon="13.600596"><ele>701.20</ele></trkpt>
      <trkpt lat="47.900038" lon="13.602719"><ele>711.80</ele></trkpt>
      <trkpt lat="47.900255" lon="13.602886"><ele>710.90</ele></trkpt>
      <trkpt lat="47.900841" lon="13.602906"><ele>706.70</ele></trkpt>
      <trkpt lat="47.901353" lon="13.603410"><ele>700.30</ele></trkpt>
      <trkpt lat="47.901381" lon="13.603612"><ele>699.60</ele></trkpt>
      <trkpt lat="47.901112" lon="13.604197"><ele>700.50</ele></trkpt>
      <trkpt lat="47.901016" lon="13.604799"><ele>701.60</ele></trkpt>
      <trkpt lat="47.901066" lon="13.606427"><ele>709.10</ele></trkpt>
      <trkpt lat="47.901187" lon="13.607314"><ele>717.00</ele></trkpt>
      <trkpt lat="47.901390" lon="13.606372"><ele>721.40</ele></trkpt>
      <trkpt lat="47.901464" lon="13.605676"><ele>727.80</ele></trkpt>
      <trkpt lat="47.901620" lon="13.605416"><ele>730.50</ele></trkpt>
      <trkpt lat="47.901745" lon="13.605366"><ele>733.00</ele></trkpt>
      <trkpt lat="47.902017" lon="13.605935"><ele>743.10</ele></trkpt>
      <trkpt lat="47.902137" lon="13.606882"><ele>753.30</ele></trkpt>
      <trkpt lat="47.902660" lon="13.607462"><ele>765.90</ele></trkpt>
      <trkpt lat="47.902880" lon="13.608183"><ele>775.70</ele></trkpt>
      <trkpt lat="47.904032" lon="13.610467"><ele>800.70</ele></trkpt>
      <trkpt lat="47.904538" lon="13.611783"><ele>804.30</ele></trkpt>
      <trkpt lat="47.905301" lon="13.614031"><ele>806.20</ele></trkpt>
      <trkpt lat="47.905648" lon="13.615774"><ele>817.30</ele></trkpt>
      <trkpt lat="47.905718" lon="13.616437"><ele>821.60</ele></trkpt>
      <trkpt lat="47.905904" lon="13.616569"><ele>825.10</ele></trkpt>
      <trkpt lat="47.906099" lon="13.616489"><ele>827.10</ele></trkpt>
      <trkpt lat="47.906221" lon="13.616334"><ele>827.70</ele></trkpt>
      <trkpt lat="47.906364" lon="13.616366"><ele>829.40</ele></trkpt>
      <trkpt lat="47.906445" lon="13.616598"><ele>831.10</ele></trkpt>
      <trkpt lat="47.906478" lon="13.617269"><ele>836.70</ele></trkpt>
      <trkpt lat="47.906964" lon="13.617914"><ele>837.80</ele></trkpt>
      <trkpt lat="47.907305" lon="13.618229"><ele>837.30</ele></trkpt>
      <trkpt lat="47.907744" lon="13.618401"><ele>839.40</ele></trkpt>
      <trkpt lat="47.908637" lon="13.618912"><ele>841.20</ele></trkpt>
      <trkpt lat="47.909037" lon="13.618986"><ele>840.50</ele></trkpt>
      <trkpt lat="47.909644" lon="13.618776"><ele>837.90</ele></trkpt>
      <trkpt lat="47.910010" lon="13.618406"><ele>834.80</ele></trkpt>
      <trkpt lat="47.910124" lon="13.618152"><ele>834.30</ele></trkpt>
      <trkpt lat="47.910123" lon="13.618466"><ele>837.10</ele></trkpt>
      <trkpt lat="47.909946" lon="13.619239"><ele>844.70</ele></trkpt>
      <trkpt lat="47.909957" lon="13.619764"><ele>845.50</ele></trkpt>
      <trkpt lat="47.909851" lon="13.619968"><ele>850.70</ele></trkpt>
      <trkpt lat="47.909597" lon="13.621064"><ele>862.00</ele></trkpt>
      <trkpt lat="47.909540" lon="13.621147"><ele>864.00</ele></trkpt>
      <trkpt lat="47.909428" lon="13.620856"><ele>868.50</ele></trkpt>
      <trkpt lat="47.909316" lon="13.620910"><ele>872.70</ele></trkpt>
      <trkpt lat="47.909166" lon="13.621325"><ele>880.10</ele></trkpt>
      <trkpt lat="47.909065" lon="13.622064"><ele>885.70</ele></trkpt>
      <trkpt lat="47.908673" lon="13.622870"><ele>901.60</ele></trkpt>
      <trkpt lat="47.908700" lon="13.623904"><ele>900.50</ele></trkpt>
      <trkpt lat="47.909069" lon="13.625179"><ele>901.40</ele></trkpt>
      <trkpt lat="47.909394" lon="13.627016"><ele>899.40</ele></trkpt>
      <trkpt lat="47.909924" lon="13.631318"><ele>897.40</ele></trkpt>
      <trkpt lat="47.910092" lon="13.632068"><ele>893.40</ele></trkpt>
      <trkpt lat="47.910258" lon="13.632601"><ele>888.60</ele></trkpt>
      <trkpt lat="47.910644" lon="13.633150"><ele>882.60</ele></trkpt>
      <trkpt lat="47.910989" lon="13.633811"><ele>880.90</ele></trkpt>
      <trkpt lat="47.911159" lon="13.634353"><ele>876.90</ele></trkpt>
      <trkpt lat="47.911469" lon="13.634904"><ele>872.70</ele></trkpt>
      <trkpt lat="47.911604" lon="13.635549"><ele>867.50</ele></trkpt>
      <trkpt lat="47.911664" lon="13.636062"><ele>864.80</ele></trkpt>
      <trkpt lat="47.911534" lon="13.637120"><ele>862.20</ele></trkpt>
      <trkpt lat="47.911527" lon="13.638540"><ele>857.30</ele></trkpt>
      <trkpt lat="47.911368" lon="13.639919"><ele>851.10</ele></trkpt>
      <trkpt lat="47.911341" lon="13.642163"><ele>840.40</ele></trkpt>
      <trkpt lat="47.911479" lon="13.643137"><ele>842.40</ele></trkpt>
      <trkpt lat="47.911701" lon="13.643956"><ele>846.20</ele></trkpt>
      <trkpt lat="47.911967" lon="13.644755"><ele>852.00</ele></trkpt>
      <trkpt lat="47.912567" lon="13.645881"><ele>853.40</ele></trkpt>
      <trkpt lat="47.912470" lon="13.647926"><ele>853.10</ele></trkpt>
      <trkpt lat="47.912605" lon="13.649077"><ele>848.60</ele></trkpt>
      <trkpt lat="47.912872" lon="13.650100"><ele>844.50</ele></trkpt>
      <trkpt lat="47.913200" lon="13.650773"><ele>836.10</ele></trkpt>
      <trkpt lat="47.913768" lon="13.651224"><ele>826.00</ele></trkpt>
      <trkpt lat="47.914882" lon="13.651823"><ele>824.90</ele></trkpt>
      <trkpt lat="47.915191" lon="13.651932"><ele>832.10</ele></trkpt>
      <trkpt lat="47.916038" lon="13.652052"><ele>847.10</ele></trkpt>
      <trkpt lat="47.916619" lon="13.652342"><ele>858.40</ele></trkpt>
      <trkpt lat="47.917012" lon="13.652412"><ele>863.10</ele></trkpt>
      <trkpt lat="47.917302" lon="13.652241"><ele>867.60</ele></trkpt>
      <trkpt lat="47.917828" lon="13.652348"><ele>873.10</ele></trkpt>
      <trkpt lat="47.918348" lon="13.652672"><ele>877.10</ele></trkpt>
      <trkpt lat="47.918852" lon="13.653183"><ele>882.30</ele></trkpt>
      <trkpt lat="47.919215" lon="13.653769"><ele>893.20</ele></trkpt>
      <trkpt lat="47.919446" lon="13.653932"><ele>901.10</ele></trkpt>
      <trkpt lat="47.919750" lon="13.654700"><ele>910.90</ele></trkpt>
      <trkpt lat="47.920232" lon="13.655623"><ele>926.40</ele></trkpt>
      <trkpt lat="47.920570" lon="13.657608"><ele>947.20</ele></trkpt>
      <trkpt lat="47.921052" lon="13.658619"><ele>952.80</ele></trkpt>
      <trkpt lat="47.921794" lon="13.660541"><ele>963.40</ele></trkpt>
      <trkpt lat="47.921897" lon="13.661177"><ele>968.50</ele></trkpt>
      <trkpt lat="47.922128" lon="13.661774"><ele>968.10</ele></trkpt>
      <trkpt lat="47.922261" lon="13.662410"><ele>966.30</ele></trkpt>
      <trkpt lat="47.922837" lon="13.664225"><ele>971.90</ele></trkpt>
      <trkpt lat="47.923089" lon="13.665635"><ele>962.30</ele></trkpt>
      <trkpt lat="47.923108" lon="13.667510"><ele>951.90</ele></trkpt>
      <trkpt lat="47.923025" lon="13.669096"><ele>940.40</ele></trkpt>
      <trkpt lat="47.922878" lon="13.670337"><ele>930.80</ele></trkpt>
      <trkpt lat="47.922796" lon="13.670578"><ele>929.40</ele></trkpt>
      <trkpt lat="47.922641" lon="13.670772"><ele>927.50</ele></trkpt>
      <trkpt lat="47.922543" lon="13.671119"><ele>926.20</ele></trkpt>
      <trkpt lat="47.922371" lon="13.672709"><ele>920.80</ele></trkpt>
      <trkpt lat="47.922252" lon="13.672961"><ele>921.00</ele></trkpt>
      <trkpt lat="47.921992" lon="13.676479"><ele>911.70</ele></trkpt>
      <trkpt lat="47.922101" lon="13.678497"><ele>897.80</ele></trkpt>
      <trkpt lat="47.921729" lon="13.679982"><ele>900.30</ele></trkpt>
      <trkpt lat="47.921555" lon="13.681259"><ele>895.10</ele></trkpt>
      <trkpt lat="47.921335" lon="13.683910"><ele>885.30</ele></trkpt>
      <trkpt lat="47.921485" lon="13.683995"><ele>883.40</ele></trkpt>
      <trkpt lat="47.921597" lon="13.684295"><ele>879.70</ele></trkpt>
      <trkpt lat="47.921505" lon="13.684905"><ele>884.50</ele></trkpt>
      <trkpt lat="47.921397" lon="13.685088"><ele>884.00</ele></trkpt>
    </trkseg>
  </trk>
</gpx>
